Name,Url,Telephone,Longitude,Latitude,AddressRegion,AddressLocality,AddressCountry,Tags,Type,Popularity
St. Moling's Trail - Driving Route,http://carlowtourism.com/,+353(0)599131554,-6.927646676,52.6008546,Carlow,,Ireland,"Activity Operator,Church Abbey,Monastery,Churches,Abbeys and Monastery,Historic Houses and Castle,Museums and Attraction,Ruins,Tour",Museum,6.217791710516929
St. Patrick's Trail - Driving Route,http://www.carlowtourism.com,+353(0)599131554,-6.928555,52.836569999999995,Carlow,,Ireland,"Activity Operator,Church Abbey,Monastery,Churches,Abbeys and Monastery,Museums and Attraction,Ruins,Historic Houses and Castle",Museum,8.021407555871612
Whiskey Island - Dublin Distillery Trail,https://www.whiskeyisland.ie/dublin-distillery-trail/,35316877747,-6.2595459,53.3442059,Dublin,Dublin,Ireland,"Activity Operator,Museums and Attraction",Museum,7.551963995465568
Irish Whiskey Museum,http://www.irishwhiskeymuseum.ie,+353(0)15250970,-6.259589373,53.34424924,Dublin,,Republic of Ireland,"Activity Operator,Museums and Attraction,Food and Drink,Pubs and Bar,Food Shops,Shopping,Tour",Museum,8.737944729625417
Bram Stoker’s Castle Dracula Experience Dublin,http://www.CastleDracula.ie,+353(0)18512151,-6.229030364,53.36303247,Dublin,Clontarf,Ireland,"Activity Operator,Museums and Attraction,Literary Ireland,Venue,Music,Food Shops,Shopping",Museum,4.161198926120376
Valentia Slate,https://www.facebook.com/ValentiaSlate/,3.53862E+11,-10.3427468,51.9251401,Kerry,,Ireland,"Activity Operator,Natural Landscape,Tour",Walk/Nature,4.999560542419413
Kissane Sheep Farm,https://www.kissanesheepfarm.com/,3.53647E+11,-9.632594699999999,51.948642299999996,Kerry,,Ireland,"Agriculture,Nature and Wildlife,Visitor Farm,Tour",Walk/Nature,5.224159509275922
Dublin Art Life,http://dublinartlife.com,,-6.2603097000000005,53.34980529999999,Dublin,Dublin City,Republic of Ireland,"Art Gallery,Museums and Attraction",Museum,3.6018156082451034
Cahore Beach ,,,-6.197159,52.5590215,Wexford,Cahore,Ireland,Beach,Beach,5.493255898072472
Derrymore Beach,,+353(0)667121288,-9.842923401,52.24068427,Kerry,Derrymore,Republic of Ireland,Beach,Beach,6.410052255924782
Gurteen Beach,,,-9.960840282000001,53.37948911,Galway,Roundstone,Ireland,Beach,Beach,5.979816860746687
Balbriggan Beach,,+353(0)18400077,-6.182411859,53.61201653,Dublin,Swords,Republic of Ireland,Beach,Beach,2.8990087096180073
Arklow Beach,,,-6.126780942000001,52.81185983,Wicklow,Arklow,Ireland,Beach,Beach,4.075276457926276
Ballybunion North Beach,https://www.blueflag.global/show-site?siteId=6641,3.53667E+11,-9.681072438,52.50507167,Kerry,Ballybunion,Republic of Ireland,Beach,Beach,3.9362956822199857
Baginbun Beach,,,-6.929461999999999,52.123762,Wexford,,Republic of Ireland,Beach,Beach,4.322167434846787
Carnivan Beach,,,-6.830589669,52.17620032,Wexford,,Republic of Ireland,Beach,Beach,4.214462293642319
Woodstown Beach,,,-6.983563056,52.19287649,Waterford,Woodstown,Republic of Ireland,Beach,Beach,5.88812499435292
Kilpatrick Beach,,,-6.151020143999999,52.72790513,Wexford,Castletown,Republic of Ireland,Beach,Beach,1.9699337086716548
Curragh Beach,,,-7.70896021,51.96696584,Waterford,Ardmore,Ireland,Beach,Beach,4.280299005904958
Portrane Beach,,+353(0)18400077,-6.1113520260000005,53.49614512,Dublin,Portrane,Republic of Ireland,Beach,Beach,4.688648158866386
Poulshone Beach,,,-6.224555489,52.61782494,Wexford,Poulshone,Republic of Ireland,Beach,Beach,5.150409509445071
Camp Beach,,+353(0)667121288,-9.922619032,52.22567895,Kerry,Camp,Republic of Ireland,Beach,Beach,4.171444267128826
Culleton’s Gap Beach ,,,-6.365338225,52.3718065,Wexford,Curracloe,Ireland,Beach,Beach,4.6692611840944425
Garnish Beach,,,-10.132944,51.614852299999995,Cork,,Ireland,Beach,Beach,5.068726012179456
Kilmichael Strand,,,-6.141523234,52.73541348,Wexford,Castletown,Republic of Ireland,Beach,Beach,7.6467581712603785
Ardamine Beach,,,-6.226382459,52.64386973,Wexford,Courtown,Republic of Ireland,Beach,Beach,3.7515319899495125
Roney Point Beach,,,-6.211656302000001,52.59954632,Wexford,Courtown,Republic of Ireland,Beach,Beach,4.002122869602565
Barnageara Beach,,+353(0)18400077,-6.148359036,53.58666584,Dublin,,Republic of Ireland,Beach,Beach,5.108820301285005
Littor Beach,,,-9.578705900000001,52.5737055,Kerry,,Ireland,Beach,Beach,4.834261075687829
Goats Island ,,,-7.761013,51.9456704,Waterford,,Ireland,Beach,Beach,3.193832428314527
Glascarrig Beach,,,-6.204060286,52.58147885,Wexford,Cahore,Republic of Ireland,Beach,Beach,4.15641473167999
Courtown  Beach,,,-6.2260467,52.647958200000005,Wexford,Courtown,Ireland,Beach,Beach,3.4402477005151084
Glanteenassig Wood,http://www.coillteoutdoors.ie,+353(0)667163378,-10.02929126,52.20570913,Kerry,Castlegregory,Republic of Ireland,"Bird Watching,Nature and Wildlife,Cycling,Fishing,Angling,Walking,Forest Park,Park and Forest Walk,Natural Landscape",Walk/Nature,4.197101132790122
Inishbofin Island (Inis Bó Finne),http://www.donegalislands.com,+353(0)749135635,-8.170623921,55.1678058,Donegal,,Ireland,"Bird Watching,Nature and Wildlife,Kayaking,Activity Operator,Kitesurfing,Windsurfing,Walking,Beach,Island,Offshore Island,Natural Landscape",Walk/Nature,4.636609235065443
The Wexford Slobs and Wildfowl Reserve,https://www.wexfordwildfowlreserve.ie,3.53761E+11,-6.4200302,52.3570279,Wexford,,Ireland,"Bird Watching,Nature and Wildlife,Learning,Photography,Forest Park,Park and Forest Walk,Walking,National Park,National and Forest Park,Natural Landscape",Walk/Nature,4.418517515774183
The Barony Of Erris Birdwatching,https://www.mayo-ireland.ie/en/towns-villages/bangor/bangor-activities-birdwatching.html,+353(0)9782292,-9.990733019,54.223720400000005,Mayo,,Republic of Ireland,"Bird Watching,Nature and Wildlife,Natural Landscape",Walk/Nature,5.114546065268688
Muckross Friary,http://www.heritageireland.ie/en,3.53647E+11,-9.504292,52.018083000000004,Kerry,Killarney,Republic of Ireland,"Bird Watching,Nature and Wildlife,Photography,Learning,Walking,Historic Houses and Castle,Church Abbey,Monastery,Churches,Abbeys and Monastery,National Park,National and Forest Park,Ruins",Walk/Nature,8.318823567530707
Saltee Islands,http://www.salteeislands.info/,,-6.588815386,52.17249931,Wexford,Kilmore Quay,Republic of Ireland,"Bird Watching,Nature and Wildlife,Photography,Learning,Walking,Island,Offshore Island",Walk/Nature,7.027442555029566
Blessington Street Basin (Dublin's Secret Garden),http://www.dublincity.ie/main-menu-services-recreation-culture-dublin-city-parks-visit-park/blessington-street-basin,+353(0)16612369,-6.269691598,53.35722262,Dublin,Dublin City,Republic of Ireland,"Bird Watching,Nature and Wildlife,Walking,Gardens,Garden",Walk/Nature,6.358928368099901
Inish Beg Island,http://www.inishbeg.com,+353(0)2821745,-9.352918849,51.52125347,Cork,Baltimore,Republic of Ireland,"Bird Watching,Nature and Wildlife,Walking,Island,Offshore Island,Natural Landscape,Cafe,Food and Drink",Walk/Nature,6.791535947474179
Dunloe Castle,https://killarney.ie/listing/dunloe-castle,3.53647E+11,-9.627419,52.059671,Kerry,Beaufort,Republic of Ireland,"Castle,Historic Houses and Castle",House/Castle,6.1285215272814
Athlumney Castle,http://www.discoverboynevalley.ie/boyne-valley-drive/heritage-sites/athlumney-castle-navan,3.5342E+11,-6.675047999999999,53.650358999999995,Meath,Navan,Republic of Ireland,"Castle,Historic Houses and Castle",House/Castle,5.123886548512595
Kanturk Castle,https://www.castles.nl/kanturk-castle,3.53214E+11,-8.9027299,52.164382,Cork,Banteer,Ireland,"Castle,Historic Houses and Castle",House/Castle,4.840965231082564
Glenquin Castle,https://www.limerick.ie/discover/eat-see-do/history-heritage/historic-attractions/glenquin-castle,35361396255,-9.106741,52.38393789999999,Limerick,Glenquin,Ireland,"Castle,Historic Houses and Castle",House/Castle,4.685846602586662
Moygara Castle,http://www.loughgaralakesandlegends.ie/lough-gara/moygara-castle,3.53719E+11,-8.4751904,53.9718301,Sligo,,Ireland,"Castle,Historic Houses and Castle",House/Castle,3.576224613635807
Teach Mhuiris,https://www.gaothdobhair.ie/en/tourist-attractions-gweedore/teach-mhuiris,3.5375E+11,-8.292346461000001,55.07528477,Donegal,Derrybeg,Ireland,"Castle,Historic Houses and Castle",House/Castle,2.59317825269713
Brideweir Hous,https://www.brideweir.ie,3532536386,-8.1550475,52.0869699,Cork,Conna,Ireland,"Castle,Historic Houses and Castle",House/Castle,4.288261016310034
Lynch's Castle,http://galwaycity.galway-ireland.ie/lynchs-castle.htm,,-9.0522862,53.273165799999994,Galway,,Ireland,"Castle,Historic Houses and Castle",House/Castle,5.373841026375949
Lackeen Castle Lorrha,"http://www.megalithicireland.com/Lackeen%20Castle,%20Tipperary.html",3.53863E+11,-8.073586599999999,53.0887302,Tipperary,,Ireland,"Castle,Historic Houses and Castle",House/Castle,4.941745904830291
Primrose Hill,,+353(0)16280373,-6.450529,53.353489,Dublin,Lucan,Ireland,"Castle,Historic Houses and Castle",House/Castle,2.724669935297193
Cablemaster's Residence,https://atlanticvilla.ie/cablemaster-house,3.53872E+11,-10.289066,51.922393,Kerry,Knightstown,Republic of Ireland,"Castle,Historic Houses and Castle",House/Castle,7.931676504179594
Eighty Two Merrion Square,,+353(0)16761173,-6.251328,53.339313,Dublin,Dublin City Centre,Republic of Ireland,"Castle,Historic Houses and Castle",House/Castle,5.060904296252019
Parkavonear Castle,http://www.megalithicireland.com/Parkavonear%20Castle.html,3.53647E+11,-9.5550062,52.0759354,Kerry,,Ireland,"Castle,Historic Houses and Castle",House/Castle,5.772244795414369
Dolly's Cottage,https://www.facebook.com/DollysCottage,3.53719E+11,-8.5841759,54.270777,Sligo,Strandhill,Ireland,"Castle,Historic Houses and Castle",House/Castle,4.0308253440795525
Killaghy Castle,http://www.castlesinireland.com/castle-in-tipperary-killaghy-castle-tipperary,,-7.5144163,52.5172294,Tipperary,Mullinahone,Ireland,"Castle,Historic Houses and Castle",House/Castle,4.698344457701236
Leap Castle,http://leapcastle.net,3.53579E+11,-7.8084534,53.0279902,Offaly,Leap,Ireland,"Castle,Historic Houses and Castle",House/Castle,5.320411069091477
Nolans Castle,http://www.enniscrone.ie/castle,3.53719E+11,-9.0855335,54.2161835,Sligo,Enniscrone,Ireland,"Castle,Historic Houses and Castle",House/Castle,8.264540014931828
Granagh Castle,https://visionsofthepastblog.com/2017/08/09/granagh-castle-kilkenny-ireland,,-7.162739999999999,52.282509999999995,Kilkenny,,Ireland,"Castle,Historic Houses and Castle",House/Castle,3.55384626796981
Garryhill House,https://www.buildingsofireland.ie/buildings-search/building/10301651/garryhill-house-garryhill-county-carlow,3.536E+11,-6.8480669999999995,52.678048,Carlow,Bagenalstown,Republic of Ireland,"Castle,Historic Houses and Castle",House/Castle,4.26235947407635
Carlow Courthouse,http://www.igp-web.com/Carlow/courthouse.htm,,-6.931212085,52.83821114,Carlow,,Republic of Ireland,"Castle,Historic Houses and Castle",House/Castle,4.612399303669996
Ballynahow Castle,http://irishantiquities.bravehost.com/tipperary/ballynahow/ballynahow.html,,-7.8785802,52.6930716,Tipperary,,Ireland,"Castle,Historic Houses and Castle",House/Castle,4.352686752288038
Clogher Castle,https://www.cloghancastle.ie,3.53719E+11,-8.51182,53.9373,Sligo,Monasteraden,Republic of Ireland,"Castle,Historic Houses and Castle",House/Castle,6.661594688825867
Minard Castle,http://www.megalithicireland.com/Minard%20Castle.html,,-10.110451800000002,52.126024900000004,Kerry,Kilmurry,Ireland,"Castle,Historic Houses and Castle",House/Castle,4.709119106505023
Ballymalis Castle,https://www.inspirock.com/ireland/killarney/ballymalis-castle-a58204201,3.53647E+11,-9.6924377,52.0845424,Kerry,,Ireland,"Castle,Historic Houses and Castle",House/Castle,5.817277999504066
Gleninagh Castle,,,-9.205829,53.1377228,Clare,,Ireland,"Castle,Historic Houses and Castle",House/Castle,5.4406796954712195
Conna Castle,https://www.castles.nl/conna-castle,3.53862E+11,-8.1016545,52.0945205,Cork,Conna,Ireland,"Castle,Historic Houses and Castle",House/Castle,4.50739672326812
Ballymote Castle,http://www.megalithicireland.com/Ballymote%20Castle.html,,-8.519724499999999,54.087625,Sligo,Ballymote,Ireland,"Castle,Historic Houses and Castle",House/Castle,3.5414369392294605
Carrigogunnell Castle,http://www.megalithicireland.com/Carrigogunnell%20Castle.html,35361317522,-8.741821,52.646438,Limerick,Limerick City,Republic of Ireland,"Castle,Historic Houses and Castle",House/Castle,3.477215061249543
Cork Courthouse,http://www.courts.ie/offices.nsf/bae2125da4ef043080256e45004d04f3/0a9a7f907f3e33fe80256e450050b94a?OpenDocument,3.53215E+11,-8.478810699999999,51.89781,Cork,,Ireland,"Castle,Historic Houses and Castle",House/Castle,6.39400804307547
Berkeley Forest House,http://berkeleyforesthouse.com,35351421361,-6.873299052999999,52.41402524,Wexford,New Ross,Republic of Ireland,"Castle,Historic Houses and Castle",House/Castle,6.32773353322751
O'Donovan's Castle,https://www.castles.nl/castle-donovan,3532821489,-9.2827815,51.692145000000004,Cork,,Ireland,"Castle,Historic Houses and Castle",House/Castle,4.7324802694757615
Carrigaphooca Castle,https://www.castles.nl/carrigaphooca-castle,3532620544,-9.028399,51.908549,Cork,Macroom,Republic of Ireland,"Castle,Historic Houses and Castle",House/Castle,4.845416270279305
Mallow Castle,https://www.castles.nl/mallow-castle,3.53859E+11,-8.6390052,52.1338549,Cork,Mallow,Ireland,"Castle,Historic Houses and Castle",House/Castle,5.19111831153225
Ballynacarriga Castle,http://www.castles.ancientireland.org/ballinacarriga/index.htm,3.53239E+11,-9.031647999999999,51.705571,Cork,Bandon,Ireland,"Castle,Historic Houses and Castle",House/Castle,3.8620849474586207
Fitzmaurice Castle,https://www.ballybunion.ie/things-to-do/attractions/ballybunion-castle.html,3.53667E+11,-9.677463099999999,52.5120069,Kerry,,Ireland,"Castle,Historic Houses and Castle",House/Castle,6.9214587022540055
Coppinger's Court,"http://www.megalithicireland.com/Coppinger's%20Court,%20Cork.html",3532821489,-9.0668602,51.5716479,Cork,,Ireland,"Castle,Historic Houses and Castle",House/Castle,6.681687371085566
Ballinafad Castle,http://www.megalithicireland.com/Ballinafad%20Castle.html,,-8.335818,54.0259909,Sligo,Ballinafad,Ireland,"Castle,Historic Houses and Castle",House/Castle,3.671048180342999
Macroom Castle,https://www.castles.nl/macroom-castle,3532620544,-8.961492,51.904995,Cork,Macroom,Republic of Ireland,"Castle,Historic Houses and Castle",House/Castle,5.106953102028521
Desmond Castle and  Wine Museum,https://heritageireland.ie/visit/places-to-visit/desmond-castle-kinsale/,3.53215E+11,-8.5246615,51.7072605,Cork,Kinsale,Ireland,"Castle,Historic Houses and Castle,Museums and Attraction",Museum,3.8964811071113616
Ballycarbery Castle,https://www.theringofkerry.com/ballycarbery-castle,3.53647E+11,-10.258626699999999,51.9489036,Kerry,Cahersiveen,Ireland,"Castle,Historic Houses and Castle,Ruins",House/Castle,6.623914906842941
Black Castle Wicklow,"http://www.megalithicireland.com/Black%20Castle,%20Wicklow.html",,-6.030844999999999,52.9811225,Wicklow,,Ireland,"Castle,Historic Houses and Castle,Ruins",House/Castle,7.655535274387533
Ballymoon Castle,http://carlowtourism.com/ballymoon-castle-2,,-6.9062967,52.700405,Carlow,,Ireland,"Castle,Historic Houses and Castle,Ruins",House/Castle,6.1115177148149975
Bullock Castle,http://www.dlrtourism.ie,+353(0)1280 6964,-6.1086290000000005,53.285016000000006,Dublin,Dalkey,Republic of Ireland,"Castle,Historic Houses and Castle,Ruins",House/Castle,3.849912504277081
Carlow Castle,https://carlowtourism.com/carlow-castle-2,3.53599E+11,-6.935935000000001,52.8362564,Carlow,,Ireland,"Castle,Historic Houses and Castle,Ruins",House/Castle,5.379520822715032
Clonmore Castle,"http://www.megalithicireland.com/Clonmore%20Castle,%20Carlow.html",,-6.5751246,52.8282856,Carlow,Hacketstown,Ireland,"Castle,Historic Houses and Castle,Ruins",House/Castle,7.220132482741259
Carlingford Castle,https://carlingfordheritagecentre.com/portfolio/king-johns-castle/,3.53429E+11,-6.1868336,54.0432392,Louth,Carlingford,Ireland,"Castle,Historic Houses and Castle,Ruins",House/Castle,2.7599906616994763
Kilteel Castle,http://www.megalithicireland.com/Kilteel%20Castle.html,35345521240,-6.5274876,53.2326787,Kildare,,Ireland,"Castle,Historic Houses and Castle,Ruins",House/Castle,6.878475060376991
Michael Collins Birthplace,http://www.michaelcollinscentre.com/,3.53239E+11,-8.980502699999999,51.6165156,Cork,,Ireland,"Castle,Historic Houses and Castle,Ruins",House/Castle,6.634653397260447
Annagh Church,,3.53667E+11,-9.742521,52.248165,Kerry,Blennerville,Republic of Ireland,"Church Abbey,Monastery,Churches,Abbeys and Monastery",Church/Monastery,4.716756340298394
Corcomroe Cistercian Abbey,http://monastic.ie/history/corcomroe-cisterican-abbey,3.53657E+11,-9.0540065,53.1268421,Clare,,Ireland,"Church Abbey,Monastery,Churches,Abbeys and Monastery",Church/Monastery,4.867393445313054
Askeaton Castle and Franciscan Friary,http://monastic.ie/history/askeaton-franciscan-friary,35361392149,-8.975399000000001,52.603892,Limerick,Askeaton,Republic of Ireland,"Church Abbey,Monastery,Churches,Abbeys and Monastery",Church/Monastery,7.32099936295452
Findlater Church,,+353(0)18378600,-6.263976,53.35462,Dublin,Dublin City,Republic of Ireland,"Church Abbey,Monastery,Churches,Abbeys and Monastery",Church/Monastery,3.1202599706415595
St Iberius Church,,,-6.4621424,52.3391991,Wexford,,Ireland,"Church Abbey,Monastery,Churches,Abbeys and Monastery",Church/Monastery,5.883274910115394
Killary Monastic Site,,,-6.546373,53.707926,Meath,Slane,Republic of Ireland,"Church Abbey,Monastery,Churches,Abbeys and Monastery",Church/Monastery,5.33733602287894
St Multose Church,,3.53215E+11,-8.525568,51.70585,Cork,Kinsale,Ireland,"Church Abbey,Monastery,Churches,Abbeys and Monastery",Church/Monastery,5.288181227409173
Duleek Abbey,http://www.discoverboynevalley.ie/boyne-valley-drive/heritage-sites/duleek-abbey,3.5342E+11,-6.4221752,53.65475010000001,Meath,Duleek,Ireland,"Church Abbey,Monastery,Churches,Abbeys and Monastery",Church/Monastery,4.5926192448135605
Stradbally Medieval Church,,3535841741,-7.460793487,52.13043387,Waterford,Stradbally,Ireland,"Church Abbey,Monastery,Churches,Abbeys and Monastery",Church/Monastery,7.502615324798668
Dún An Óir,"http://www.megalithicireland.com/Dun%20an%20Oir,%20Smerwick.html",,-10.4149455,52.190196500000006,Kerry,Smerwick,Ireland,"Church Abbey,Monastery,Churches,Abbeys and Monastery",Church/Monastery,6.10187418086063
Kilfane Church,,3.53568E+11,-7.118503,52.555068999999996,Kilkenny,Thomastown,Republic of Ireland,"Church Abbey,Monastery,Churches,Abbeys and Monastery",Church/Monastery,4.151421368816974
Bective Abbey,http://monastic.ie/history/bective-cistercian-abbey,,-6.7028943,53.582474100000006,Meath,Ballina,Ireland,"Church Abbey,Monastery,Churches,Abbeys and Monastery",Church/Monastery,2.486683346733808
Kilcooley Abbey,"http://www.megalithicireland.com/Kilcooley%20Abbey,%20Tipperary.html",,-7.5713094,52.670768599999995,Tipperary,,Ireland,"Church Abbey,Monastery,Churches,Abbeys and Monastery",Church/Monastery,4.427576662158062
St Michan's Church,,35318724154,-6.275396,53.347457999999996,Dublin,Dublin City,Republic of Ireland,"Church Abbey,Monastery,Churches,Abbeys and Monastery",Church/Monastery,9.21310763216253
Temple Cronan Early Christian Church,,3.53657E+11,-9.0609731,53.0461692,Clare,,Ireland,"Church Abbey,Monastery,Churches,Abbeys and Monastery",Church/Monastery,5.23924064530724
Red Abbey,http://www.corkpastandpresent.ie/mapsimages/corkphotographs/corkcameraclubhistoricalphotos/redabbeystreet/,3.53215E+11,-8.4723587,51.8940883,Cork,,Ireland,"Church Abbey,Monastery,Churches,Abbeys and Monastery",Church/Monastery,4.138335893416851
St. Patricks Well - Clonmel,,3.53526E+11,-7.761667,52.362071,Tipperary,Clonmel,Ireland,"Church Abbey,Monastery,Churches,Abbeys and Monastery",Church/Monastery,5.895998532077404
Carran Medieval Church,,3.53657E+11,-9.076044900000001,53.0376019,Clare,Carran,Ireland,"Church Abbey,Monastery,Churches,Abbeys and Monastery",Church/Monastery,4.8029923598348585
Lislaughtin Franciscan Friary,,3.53667E+11,-9.47861,52.547334,Kerry,Ballylongford,Republic of Ireland,"Church Abbey,Monastery,Churches,Abbeys and Monastery",Church/Monastery,6.831345407017944
Kilcrea Franciscan Friary,http://ovensparish.com/kilcrea-abbey/,3.53215E+11,-8.709483,51.859982,Cork,Ovens,Republic of Ireland,"Church Abbey,Monastery,Churches,Abbeys and Monastery",Church/Monastery,7.312303776841265
Kilkieran High Cross,http://www.megalithicireland.com/High%20Cross%20Kilkieran.htm,3.53568E+11,-7.380827799999999,52.397940000000006,Kilkenny,,Ireland,"Church Abbey,Monastery,Churches,Abbeys and Monastery",Church/Monastery,4.141232889745305
St Johns Priory,,3.53568E+11,-7.248489188,52.65368264,Kilkenny,Kilkenny City,Republic of Ireland,"Church Abbey,Monastery,Churches,Abbeys and Monastery",Church/Monastery,4.449455106730613
Ballindoon Abbey,http://www.megalithicireland.com/Ballindoon%20Priory.html,3.53719E+11,-8.323266467,54.08492133,Sligo,Ballymote,Republic of Ireland,"Church Abbey,Monastery,Churches,Abbeys and Monastery",Church/Monastery,6.094055077365555
Tullylease Church And Cross Slabs,http://www.irishstones.org/place.aspx?p=861&i=12,,-8.9402469,52.316655,Cork,Tullylease,Ireland,"Church Abbey,Monastery,Churches,Abbeys and Monastery",Church/Monastery,5.431254420680937
Kilnaboy Medieval Church and Round Tower,,3.53657E+11,-9.079651,52.972126,Clare,Ennis,Republic of Ireland,"Church Abbey,Monastery,Churches,Abbeys and Monastery",Church/Monastery,4.807672931510534
St. Werburgh's Church,,+353(0)14783710,-6.269412,53.342932,Dublin,Dublin,Republic of Ireland,"Church Abbey,Monastery,Churches,Abbeys and Monastery",Church/Monastery,4.325687549477011
Dominican Abbey Lorrha,"http://www.megalithicireland.com/Lorrha%20Dominican%20Friary,%20Tipperary.html",,-8.1257745,53.0908735,Tipperary,Lorrha,Ireland,"Church Abbey,Monastery,Churches,Abbeys and Monastery",Church/Monastery,5.430222654486747
St Columba's Church,,,-6.8796990000000005,53.727540000000005,Meath,Kells,Republic of Ireland,"Church Abbey,Monastery,Churches,Abbeys and Monastery",Church/Monastery,5.280783806394092
Quin Abbey,https://www.clare.ie/do/quin-abbey/,35391844084,-8.86307,52.8191037,Clare,Quin,Ireland,"Church Abbey,Monastery,Churches,Abbeys and Monastery",Church/Monastery,2.751565791377388
Knockroe Passage Tomb,http://www.megalithicireland.com/Knockroe%20Passage%20Tomb.html,,-7.3995595000000005,52.43190920000001,Kilkenny,,Ireland,"Church Abbey,Monastery,Churches,Abbeys and Monastery",Church/Monastery,7.0305747574089175
Cloyne Round Tower,http://cloyne.ie/about/round-tower,3.53215E+11,-8.1202974,51.8620116,Cork,,Ireland,"Church Abbey,Monastery,Churches,Abbeys and Monastery",Church/Monastery,6.325878026927275
Skryne Church,https://www.skryneandrathfeighparish.ie/,3.53047E+12,-6.5631088,53.58598520000001,Meath,Skreen,Ireland,"Church Abbey,Monastery,Churches,Abbeys and Monastery",Church/Monastery,6.346899375835227
Rattoo Round Tower,https://www.gokerry.ie/rattoo-round-tower/,,-9.650194,52.442665100000006,Kerry,,Ireland,"Church Abbey,Monastery,Churches,Abbeys and Monastery",Church/Monastery,3.7950971506177225
Carrowtemple,http://www.earlychristianireland.net/Counties/sligo/carrowtemple,3.53719E+11,-8.517817239,53.98433101,Sligo,Gurteen,Republic of Ireland,"Church Abbey,Monastery,Churches,Abbeys and Monastery",Church/Monastery,5.709055797052814
Ballybeg Augustinian Priory,https://buttevantheritage.ie/poi/ballybeg-priory/,,-8.6698297,52.21953370000001,Cork,,Ireland,"Church Abbey,Monastery,Churches,Abbeys and Monastery",Church/Monastery,5.449774570777415
Castlelyons Dominican Friary,http://irishantiquities.bravehost.com/cork/castlelyons/castlelyons.html,,-8.2335,52.089393,Cork,Castlelyons,Republic of Ireland,"Church Abbey,Monastery,Churches,Abbeys and Monastery",Church/Monastery,2.9790290469893854
Killeshin Romanesque Doorway,,3.53599E+11,-6.997807671,52.84793949,Carlow,Killeshin,Republic of Ireland,"Church Abbey,Monastery,Churches,Abbeys and Monastery",Church/Monastery,7.0913937765509285
Kyrie Eleison Abbey,http://homepage.tinet.ie/~abbeydorney/Kyrieeleisonpictures.html,,-9.687159199999998,52.3534185,Kerry,Abbeydorney,Ireland,"Church Abbey,Monastery,Churches,Abbeys and Monastery",Church/Monastery,3.598129830480735
The Abbey Of Mount Saint Joseph,http://www.msjroscrea.ie/,35350525600,-7.855697999999999,52.963705000000004,Tipperary,Roscrea,Republic of Ireland,"Church Abbey,Monastery,Churches,Abbeys and Monastery",Church/Monastery,5.245406906319034
Culleenamore Middens,http://www.carrowkeel.com/sites/coolrea/culleenamore.html,,-8.609237599999998,54.260578,Sligo,Strandhill,Ireland,"Church Abbey,Monastery,Churches,Abbeys and Monastery",Church/Monastery,3.1329132024993194
Leac an Scail  - Kilmogue dolmen - Harristown Dolmen,http://www.megalithicireland.com/Kilmogue%20Dolmen.htm,,-7.261723,52.402923,Kilkenny,Knocktopher,Republic of Ireland,"Church Abbey,Monastery,Churches,Abbeys and Monastery",Church/Monastery,5.463949554248737
St. Mullins Ecclesiastical Village,,3.53879E+11,-6.929015936,52.49129964,Carlow,,Republic of Ireland,"Church Abbey,Monastery,Churches,Abbeys and Monastery",Church/Monastery,3.366008687517921
Ardmore Round Tower And Cathedral,http://roundtowers.org/ardmore/index1.htm,,-7.72603896,51.94868846,Waterford,Ardmore,Republic of Ireland,"Church Abbey,Monastery,Churches,Abbeys and Monastery",Church/Monastery,5.87340108132855
Tullaherin Round tower,,3.53568E+11,-7.1298504000000005,52.57935620000001,Kilkenny,,Ireland,"Church Abbey,Monastery,Churches,Abbeys and Monastery",Church/Monastery,4.192982129632749
Carrowkeel Megalithic Site,http://www.megalithicireland.com/Carrowkeel%20home.htm,,-8.387667137000001,54.07453456,Sligo,Carrowkeel,Republic of Ireland,"Church Abbey,Monastery,Churches,Abbeys and Monastery",Church/Monastery,2.7862042696837466
Augustinian Abbey Lorrha,"http://www.megalithicireland.com/Lorrha%20Augustinian%20Abbey,%20Tipperary.html",,-8.121999159,53.08941392,Tipperary,Lorrha,Republic of Ireland,"Church Abbey,Monastery,Churches,Abbeys and Monastery",Church/Monastery,0.8879402381161148
Drumcliffe Round Tower And High Cross,http://www.megalithicireland.com/High%20Cross%20Drumcliffe.htm,,-8.4959115,54.326283499999995,Sligo,,Ireland,"Church Abbey,Monastery,Churches,Abbeys and Monastery",Church/Monastery,5.303074966536373
Kilree High Cross,http://www.megalithicireland.com/High%20Cross%20Kilree.htm,,-7.269553999999999,52.5181956,Kilkenny,,Ireland,"Church Abbey,Monastery,Churches,Abbeys and Monastery",Church/Monastery,6.376704175000034
Dunmoe Castle,http://www.navanhistory.ie/index.php?page=dunmoe-castle-2,3.53875E+11,-6.637330800000001,53.673990100000005,Meath,,Ireland,"Church Abbey,Monastery,Churches,Abbeys and Monastery",Church/Monastery,4.868077156009458
Glanworth Castle And Dominican Friary,http://irishantiquities.bravehost.com/cork/castlelyons/castlelyons.html,,-8.354436999999999,52.1882374,Cork,Glanworth,Ireland,"Church Abbey,Monastery,Churches,Abbeys and Monastery",Church/Monastery,4.942000332771272
Saint Cronan's 10th Century Church Tuamgraney,http://www.discoverloughderg.ie/tuamgraney-church,35361921351,-8.5393666,52.896694499999995,Clare,Tuamgraney,Ireland,"Church Abbey,Monastery,Churches,Abbeys and Monastery",Church/Monastery,5.530651834271873
"Old St Mary's Church, Clonmel",https://www.stmarysparishclonmel.ie/,3.53053E+12,-7.705396400000001,52.3543347,Tipperary,Oldbridge,Ireland,"Church Abbey,Monastery,Churches,Abbeys and Monastery",Church/Monastery,7.190165564117896
Donaghpatrick Church,http://www.discoverboynevalley.ie/boyne-valley-drive/heritage-sites/donaghpatrick-church,,-6.7595491999999995,53.69656170000001,Meath,,Ireland,"Church Abbey,Monastery,Churches,Abbeys and Monastery",Church/Monastery,5.900813098444318
Fahan Beehive Huts,http://www.ancientireland.org/fahan,3.53879E+11,-10.421536,52.1016785,Kerry,Fahan,Ireland,"Church Abbey,Monastery,Churches,Abbeys and Monastery",Church/Monastery,4.9181428734800905
Clare Abbey,http://monastic.ie/history/clare-augustinian-abbey,3.53657E+11,-8.9689595,52.8290238,Clare,Ennis,Ireland,"Church Abbey,Monastery,Churches,Abbeys and Monastery",Church/Monastery,5.2345705096898225
Killagholehane Cemetery and Church,https://www.limerick.ie/discover/eat-see-do/history-heritage/churches-settlements/killagholehane-cemetery-and-church-ruin,35361396255,-8.979017,52.331277,Limerick,Broadford,Republic of Ireland,"Church Abbey,Monastery,Churches,Abbeys and Monastery",Church/Monastery,5.491958806384098
St. Patrick's Well Cross,,,-7.393276564,52.41607104,Tipperary,Ahenny,Ireland,"Church Abbey,Monastery,Churches,Abbeys and Monastery",Church/Monastery,4.535568874379725
Clonfert Cathedral,http://www.megalithicireland.com/Clonfert%20Cathedral.html,,-8.0583679,53.2406887,Galway,,Ireland,"Church Abbey,Monastery,Churches,Abbeys and Monastery",Church/Monastery,7.430770448538926
Ferns Cathedral,https://www.archaeology.ie/monument-of-the-month/archive/ferns-co-wexford,,-6.4926135,52.5899833,Wexford,,Ireland,"Church Abbey,Monastery,Churches,Abbeys and Monastery",Church/Monastery,3.8167064824842285
Whitefriar Street Church,http://www.carmelites.ie,+353(0)14758821,-6.266451999999999,53.339835,Dublin,,Republic of Ireland,"Church Abbey,Monastery,Churches,Abbeys and Monastery,Food Shops,Shopping",Shopping,2.325523479333423
Fore Abbey,https://heritageireland.ie/visit/places-to-visit/fore-abbey/,3.5345E+11,-7.227154,53.683924,Westmeath,Fore,Ireland,"Church Abbey,Monastery,Churches,Abbeys and Monastery,Ruins,Historic Houses and Castle",Church/Monastery,4.31097433700152
Killoughternane,,,-6.824711152999999,52.66285596,Carlow,Bagenalstown,Republic of Ireland,"Church Abbey,Monastery,Churches,Abbeys and Monastery,Ruins,Historic Houses and Castle",Church/Monastery,3.5223342011884045
Hill of Slane,,3.5342E+11,-6.5401217,53.7176713,Meath,Slane,Ireland,"Church Abbey,Monastery,Churches,Abbeys and Monastery,Ruins,Historic Houses and Castle",Church/Monastery,2.6527089931739125
Ahenny High Crosses,http://www.megalithicireland.com/High%20Cross%20Ahenny.htm,,-7.393333382000001,52.41253746,Tipperary,Ahenny,Ireland,"Church Abbey,Monastery,Churches,Abbeys and Monastery,Ruins,Historic Houses and Castle",Church/Monastery,5.235326436183811
Ardmulchan Church,"http://www.megalithicireland.com/Ardmulchan%20Church,%20Meath.html",,-6.628602000000001,53.67181020000001,Meath,Kells,Ireland,"Church Abbey,Monastery,Churches,Abbeys and Monastery,Ruins,Historic Houses and Castle",Church/Monastery,5.058907806539985
Kildemock Jumping Church,http://www.louthholidays.com,3.53429E+11,-6.518018,53.831371,Louth,Ardee,Republic of Ireland,"Church Abbey,Monastery,Churches,Abbeys and Monastery,Ruins,Historic Houses and Castle",Church/Monastery,5.0276746588260615
Donaghmore Round Tower,http://www.navanhistory.ie/index.php?page=donaghmore,,-6.6624650999999995,53.670453,Meath,,Ireland,"Church Abbey,Monastery,Churches,Abbeys and Monastery,Ruins,Historic Houses and Castle",Church/Monastery,5.569010297143588
St. Luke's Church,http://www.liveatstlukes.com/,,-8.457078,51.904255,Cork,Cork City,Republic of Ireland,"Church Abbey,Monastery,Churches,Abbeys and Monastery,Venue,Music",Church/Monastery,4.170244040212383
St. Mary's Pro Cathedral,http://www.procathedral.ie,+353(0)18745441,-6.258885,53.351138,Dublin,Dublin City,Republic of Ireland,"Church Abbey,Monastery,Churches,Abbeys and Monastery,Venue,Music,Food Shops,Shopping",Shopping,3.4101751823743873
Sliabh Beagh Adventures,https://sliabhbeaghadventures.ie,,-7.1294300999999995,54.30568910000001,Monaghan,Knockatallon,Republic of Ireland,"Climbing,Activity Operator,Cycling,Walking,Natural Landscape",Walk/Nature,1.639884681161139
The Manor Fields Adare,http://manorfieldsadare.com/,3.53874E+11,-8.7913384,52.5547882,Limerick,Adare,Republic of Ireland,"Climbing,Activity Operator,Gaa,Walking",Walk/Nature,3.7691287906970636
Alix Gardners Cookery School,http://www.dublincookery.com,+353(0)16681553,-6.2453330000000005,53.329643999999995,Dublin,Ballsbridge,Republic of Ireland,"Cooking,Cookery,Learning,Activity Operator,Historic Houses and Castle,Artisan,Food and Drink,Restaurant,Local Produce",House/Castle,5.088029865364839
The Irish Rock 'N' Roll Museum Experience,https://www.facebook.com/irishrockmuseum,+353(0)16351993,-6.2645992999999995,53.344865000000006,Dublin,,Ireland,"Covid Safety Charter,Activity Operator,Museums and Attraction,Traditionally Irish,Food Shops,Shopping,Tour",Museum,3.7839144360129247
Dublin Discovered Boat Tours,http://www.instagram.com/dublindiscovered,+353(0)14730000,-6.261545,53.34718,Dublin,,Republic of Ireland,"Covid Safety Charter,Activity Operator,River,Discovery Point,Boat,Tour",Walk/Nature,4.943898381679584
Charles Fort,https://heritageireland.ie/places-to-visit/charles-fort-national-monument/,3.53215E+11,-8.4989435,51.6970946,Cork,Kinsale,Ireland,"Covid Safety Charter,Castle,Historic Houses and Castle",House/Castle,5.812938436250968
Crafts of Ireland,http://craftsofireland.ie,3.53868E+11,-7.088652799999999,53.78546600000001,Cavan,Virginia,Ireland,"Covid Safety Charter,Craft,Shopping,Learning,Activity Operator,Art Gallery",Shopping,5.495463740521688
National Print Museum,https://www.nationalprintmuseum.ie,35316603770,-6.2354701,53.33529010000001,Dublin,,Ireland,"Covid Safety Charter,Craft,Shopping,Learning,Activity Operator,Museums and Attraction,Cafe,Food and Drink,Local Produce,Restaurant,Food Shops,Tour",Museum,7.1486315567686605
Merry Ploughboy Pub Traditional Nights,http://www.mpbpub.com,35314931495,-6.2968957,53.26414989999999,Dublin,Rathfarnham,Ireland,"Covid Safety Charter,Food and Drink,Restaurant,Activity Operator,Historic Houses and Castle,Traditionally Irish,Venue,Music,Local Produce,Pubs and Bar,Food Shops,Shopping",Shopping,7.015718837116826
Howth Castle,http://howthcastle.ie,+353(0)18321027,-6.079225289,53.3865384,Dublin,Howth,Republic of Ireland,"Covid Safety Charter,Golf,Walking,Historic Houses and Castle,Castle",Walk/Nature,5.503934160616999
Dalkey Castle & Heritage Centre,https://www.dalkeycastle.com,35312858366,-6.1055397000000005,53.2779072,Dublin,Dalkey,Ireland,"Covid Safety Charter,Historic Houses and Castle,Castle,Museums and Attraction,Literary Ireland,Food Shops,Shopping,Tour",Museum,4.306840914362132
Titanic Experience Cobh,http://www.titanicexperiencecobh.ie,3.53215E+11,-8.2947994,51.8499294,Cork,Kilgarvan,Ireland,"Covid Safety Charter,Historic Houses and Castle,Museums and Attraction,Food Shops,Shopping,Tour",Museum,4.291335241506653
Science Gallery Dublin,https://dublin.sciencegallery.com,35318964091,-6.255503181,53.34386166,Dublin,,Ireland,"Covid Safety Charter,Learning,Activity Operator,Museums and Attraction,Cafe,Food and Drink,Food Shops,Shopping",Museum,5.636911547868161
Clare Heritage & Genealogy Centre,http://www.clareroots.com,3.53657E+11,-9.0627719,52.94498170000001,Clare,Corofin,Ireland,"Covid Safety Charter,Learning,Activity Operator,Tracing Your Ancestors,Museums and Attraction",Museum,6.976866037137611
The Round Tower Clondalkin,http://theroundtower.ie,+353(0)15554648,-6.39537391,53.32208417,Dublin,Clondalkin,Ireland,"Covid Safety Charter,Learning,Church Abbey,Monastery,Churches,Abbeys and Monastery,Museums and Attraction,Cafe,Food and Drink,Vegan,Restaurant,Vegetarian,Food Shops,Shopping,Tour",Museum,6.026906328533242
Old Cork Waterworks Experience,http://www.lifetimelab.ie,3.53215E+11,-8.509293099999999,51.895022999999995,Cork,,Ireland,"Covid Safety Charter,Learning,Historic Houses and Castle,Museums and Attraction,Cafe,Food and Drink",Museum,4.526944328865668
Ardgillan Castle and Victorian Gardens,https://ardgillancastle.ie,35318492212,-6.1616584,53.5817894,Dublin,Balbriggan,Ireland,"Covid Safety Charter,Learning,Walking,Historic Houses and Castle,Castle,Gardens,Garden,Venue,Music,Cafe,Food and Drink,Local Produce,Restaurant,Tour",Walk/Nature,4.043853087313277
Lackagh Museum and Heritage Centre,https://www.lackaghmuseum.ie,3.53878E+11,-8.8910537,53.3695037,Galway,,Ireland,"Covid Safety Charter,Museums and Attraction",Museum,4.417107562892085
The People's Museum of Limerick,http://peoplesmuseum.ie,3.53871E+11,-8.6299147,52.658244700000004,Limerick,Limerick City,Republic of Ireland,"Covid Safety Charter,Museums and Attraction",Museum,3.2441724714725364
Kings Inns,http://www.kingsinns.ie,+353(0)18744840,-6.271646072999999,53.35287142,Dublin,,Republic of Ireland,"Covid Safety Charter,Photography,Learning,Walking,Historic Houses and Castle,Food Shops,Shopping",Shopping,6.72267541602732
The Irish Dance Party,http://irishdanceparty.com,3.53877E+11,-6.254835099999999,53.350793200000005,Dublin,Dublin,Ireland,"Covid Safety Charter,Restaurant,Food and Drink,Activity Operator,Historic Houses and Castle,Traditionally Irish,Venue,Music,Local Produce,Pubs and Bar,Food Shops,Shopping",Shopping,5.758245300225262
Rascals Brewing Company,https://rascalsbrewing.com,35315382051,-6.324065099999999,53.3361014,Dublin,Inchicore,Ireland,"Covid Safety Charter,Restaurant,Food and Drink,Activity Operator,Museums and Attraction,Pubs and Bar,Food Shops,Shopping,Tour",Museum,3.3814344322409213
Urban Brewing,http://urbanbrewing.ie,+353(0)15685989,-6.248247449,53.34908681,Dublin,,Ireland,"Covid Safety Charter,Restaurant,Food and Drink,Museums and Attraction,Historic Houses and Castle,Local Produce,Pubs and Bar,Activity Operator,Food Shops,Shopping,Tour",Museum,5.035525159035959
Avoca Powerscourt,https://www.avoca.com/en/stores-and-cafes/powersourt,35312046066,-6.1866327000000005,53.184251,Wicklow,Enniskerry,Republic of Ireland,"Covid Safety Charter,Restaurant,Food and Drink,Shopping,Shopping Centres and Department Store,Historic Houses and Castle,Cafe,Vegetarian,Food Shops",Shopping,3.147079294710889
Phoenix Park Visitor Centre and Ashtown Castle,http://www.phoenixpark.ie,+353(0)16770095,-6.331008,53.366091000000004,Dublin,Phoenix Park,Republic of Ireland,"Covid Safety Charter,Walking,Activity Operator,Castle,Historic Houses and Castle,Gardens,Garden,Cafe,Food and Drink,Food Shops,Shopping",Shopping,6.057939809004084
Pearse Museum and St. Enda's Park,http://pearsemuseum.ie,+353(0)14934208,-6.2815878220000005,53.28293774,Dublin,Rathfarnham,Republic of Ireland,"Covid Safety Charter,Walking,Historic Houses and Castle,Gardens,Garden,Museums and Attraction,Public Park,Nature and Wildlife,Cafe,Food and Drink,Tour",Museum,6.541790817668108
Biddy's Cottage,https://www.biddyscottage.com,3.53864E+11,-6.096538524,53.27655982,Dublin,Dalkey,Ireland,"Craft,Shopping,Activity Operator,Historic Houses and Castle,Local Produce,Food and Drink,Restaurant,Food Shops",Shopping,4.519925068574807
Martina Furlong - Artists Studio Gallery,https://www.martinafurlong.com/,3.53875E+11,-6.4063611,52.49821899999999,Wexford,Gorey,Ireland,"Craft,Shopping,Art Gallery",Shopping,6.1965978061327585
Bourn Vincent Gallery,https://ulsites.ul.ie/visualarts/current-and-upcoming-events,35361333644,-8.573732000000001,52.6744919,Limerick,,Ireland,"Craft,Shopping,Art Gallery",Shopping,4.574993467274656
The Gallery,http://www.thegallerydunfanaghy.com/,3.53749E+11,-7.9772202000000005,55.1791123,Donegal,Dunfanaghy,Ireland,"Craft,Shopping,Art Gallery",Shopping,3.489542716840883
Vanda Art Gallery,http://www.vandaluddy.com,3.53873E+11,-9.052645,53.273518,Galway,,Ireland,"Craft,Shopping,Art Gallery",Shopping,4.366917747819858
Kilcock Art Gallery,https://kilcockartgallery.ie/,35316287619,-6.668215400000001,53.3998824,Kildare,,Ireland,"Craft,Shopping,Art Gallery",Shopping,4.720917797690727
Sean Burns Gallery,http://www.seanburnsdesign.blogspot.com,+353(0)949372626,-8.996791,53.712736,Mayo,Claremorris,Ireland,"Craft,Shopping,Art Gallery",Shopping,5.6230857441189706
The Back Lane Pop Up Gallery,http://thebacklanegallery.blogspot.com/,3.53873E+11,-9.5062927,52.0589956,Kerry,Killarney,Ireland,"Craft,Shopping,Art Gallery",Shopping,6.7900125827603235
Exchange Dublin,https://exchangedublin.ie/,,-6.268322263,53.34454746,Dublin,,Ireland,"Craft,Shopping,Art Gallery,Activity Operator",Shopping,6.45891920900814
Project Arts Centre,http://www.projectartscentre.ie,+353(0)18819613,-6.266229,53.34502,Dublin,Dublin City Centre,Republic of Ireland,"Craft,Shopping,Art Gallery,Activity Operator,Food Shops",Shopping,6.33953009324614
Foust Gallery,http://www.sarafoustartist.com,3.53863E+11,-9.293533,52.9398625,Clare,,Ireland,"Craft,Shopping,Art Gallery,Food Shops",Shopping,3.280394769556236
City Assembly House,http://www.igs.ie/conservation/project/city-assembly-house-a-history,+353(0)16798675,-6.2624531999999995,53.34199229,Dublin,,Ireland,"Craft,Shopping,Historic Houses and Castle,Art Gallery,Museums and Attraction,Food Shops",Museum,4.577136617487727
Black Church Print Studio,http://blackchurchprint.ie/,+353(0)16773629,-6.264056,53.345634999999994,Dublin,,Republic of Ireland,"Craft,Shopping,Learning,Activity Operator,Art Gallery",Shopping,5.776737550490066
"Imaginosity, Dublin Children’s Museum",http://www.imaginosity.ie,+353(0)12176130,-6.216709,53.277381999999996,Dublin,Sandyford,Republic of Ireland,"Craft,Shopping,Learning,Activity Operator,Museums and Attraction,Cafe,Food and Drink,Food Shops",Museum,0.8740695513168388
Aine Dunne - Fine Art Tapestry Weaver,http://www.ainedunneweaver.com,3.53879E+11,-6.351277,53.762114000000004,Louth,Drogheda,Ireland,"Craft,Shopping,Learning,Art Gallery,Activity Operator",Shopping,7.017452745399959
Ballyhugh Art and Culture Centre Painting,http://homepage.eircom.net/~ballyhugh,3.535E+11,-7.583964736,54.11607379,Cavan,Ballyconnell,Republic of Ireland,"Craft,Shopping,Learning,Art Gallery,Activity Operator",Shopping,2.9446746662984804
RUA RED South Dublin Arts Centre,http://www.ruared.ie,+353(0)14515860,-6.2603097000000005,53.34980529999999,Dublin,Tallaght,Ireland,"Craft,Shopping,Learning,Art Gallery,Cafe,Food and Drink",Shopping,5.55876252702799
Droichead Arts Centre,http://www.droichead.com/,+353(0)419833946,-6.3533029999999995,53.714428000000005,Louth,Drogheda,Republic of Ireland,"Craft,Shopping,Learning,Art Gallery,Cafe,Food and Drink,Pubs and Bar,Activity Operator",Shopping,4.325908815819973
Dublin Writers Museum,http://www.writersmuseum.com,+353(0)18722077,-6.263985,53.354366000000006,Dublin,,Republic of Ireland,"Craft,Shopping,Learning,Historic Houses and Castle,Museums and Attraction,Literary Ireland,Food Shops,Tour",Museum,6.9382976810403605
Tech Amergin,http://www.techamergin.com,3.53669E+11,-10.172331,51.829584999999994,Kerry,Waterville,Ireland,"Craft,Shopping,Learning,Movies,Cinema,Venue,Art Gallery",Shopping,6.307514544260894
Áras Inis Gluaire,http://arasinisgluaire.ie/main/,+353(0)9781079,-9.988932505,54.22246655,Mayo,Belmullet,Republic of Ireland,"Craft,Shopping,Learning,Movies,Cinema,Venue,Art Gallery,Music,Cafe,Food and Drink",Shopping,3.321312659583245
National College Of Art And Design,http://www.ncad.ie,+353(0)16364200,-6.253916568999999,53.3409606,Dublin,Dublin City Centre,Republic of Ireland,"Craft,Shopping,Learning,Photography,Activity Operator,Art Gallery,Cafe,Food and Drink",Shopping,5.194810592803686
The Ballinglen Museum of Art,http://www.ballinglenartsfoundation.org,3539643184,-9.3722177,54.279739899999996,Mayo,Ballycastle,Ireland,"Craft,Shopping,Photography,Learning,Art Gallery,Museums and Attraction",Museum,3.9347544619182457
Burren Art & Craft Fair,https://www.facebook.com/burrencrafts,3.53868E+11,-9.150688235,53.11695957,Clare,Ballyvaughan,Ireland,"Craft,Shopping,Shopping Centres and Department Store,Art Gallery,Food Shops",Shopping,4.024519618615998
The Lace Gallery,http://www.thelacegallery.com,3.53599E+11,-6.7364351,52.7535167,Carlow,,Ireland,"Craft,Shopping,Shopping Centres and Department Store,Art Gallery,Food Shops",Shopping,5.212128254153542
Market House Design,https://www.craftinireland.com/events/details/market-house-design,3.53949E+11,-6.2948238,52.675610899999995,Wexford,,Ireland,"Craft,Shopping,Shopping Centres and Department Store,Art Gallery,Food Shops",Shopping,8.86842912549627
The Design Tower,http://thedesigntower.com/,,-6.239626,53.341925,Dublin,,Republic of Ireland,"Craft,Shopping,Shopping Centres and Department Store,Art Gallery,Food Shops",Shopping,6.139967305940848
Riversdale Barge Holidays,http://www.riversdaleholidays.com/,3.5372E+11,-7.7950084,54.0294267,Leitrim,Ballinamore,Ireland,"Cruising,Activity Operator,River,Discovery Point,Boat,Tour",Walk/Nature,3.606959199865226
Locaboat Ireland,https://www.locaboat.com/en/boating-holidays/ireland/shannon/,3.5372E+11,-8.099788372999999,53.94423816,Leitrim,,Republic of Ireland,"Cruising,Activity Operator,River,Discovery Point,Boat,Tour",Walk/Nature,5.473024450976797
Pleasure Cruisers,http://www.pleasurecruisers.ie,3.53863E+11,-7.927676153999999,53.83131319,Leitrim,Roosky,Republic of Ireland,"Cruising,Activity Operator,River,Discovery Point,Boat,Tour",Walk/Nature,4.685462651275115
Marlay Park,http://www.dlrcoco.ie/parks/marlay_information.html,+353(0)14937372,-6.276237376,53.27676505,Dublin,Rathfarnham,Republic of Ireland,"Cycling,Golf,Walking,Gardens,Garden,Historic Houses and Castle,Public Park,Nature and Wildlife,Venue,Music,Sports Venues,Cafe,Food and Drink,Local Produce,Restaurant,Food Shops,Shopping,Tour",Shopping,3.6428385576208244
Marlay Demesne,http://www.dlrcoco.ie/en/parks-outdoors/parks/marlay-park,+353(0)12054700,-6.27569,53.2796,Dublin,Rathfarnham,Republic of Ireland,"Cycling,Golf,Walking,Gardens,Garden,Historic Houses and Castle,Public Park,Nature and Wildlife,Venue,Music,Sports Venues,Cafe,Food and Drink,Local Produce,Restaurant,Food Shops,Shopping,Tour",Shopping,3.6945366658552623
Spanish Point,,,-9.432739,52.842867000000005,Clare,Spanish Point,Ireland,Discovery Point,Walk/Nature,6.576525964972904
Marblehill,,,-7.9019326,55.176389,Donegal,Dunfanaghy,Ireland,Discovery Point,Walk/Nature,5.971474461801308
Trá na gCeann (Silver Strand),,,-9.1247356,53.250939,Galway,Barna,Ireland,Discovery Point,Walk/Nature,7.737290023089582
Inis Meáin (Inishmaan) Seaport,,,-9.5879368,53.0894286,Galway,,Ireland,Discovery Point,Walk/Nature,7.547945220253467
Aughris Head,,,-8.7570235,54.26894300000001,Sligo,Templeboy,Ireland,Discovery Point,Walk/Nature,5.978590176388083
Droichead Charraig an Logáin (Carrickalegaun Bridge) .,,,-9.6563065,53.288173,Galway,Lettermore,Ireland,Discovery Point,Walk/Nature,6.890056707340235
Inishcrone Pier (Enniscrone Pier),,,-9.096038,54.220128,Sligo,Enniscrone,Ireland,Discovery Point,Walk/Nature,6.18085928604453
Killala Quay,,,-9.219283500000001,54.21324499999999,Mayo,Killala,Ireland,Discovery Point,Walk/Nature,4.663679360293876
Samphire Island,,,-9.859530615,52.27970839,Kerry,Fenit,Republic of Ireland,Discovery Point,Walk/Nature,7.080621604885754
Bá Fhionntrá (Fintragh Bay),,,-8.488220599999998,54.635293999999995,Donegal,,Ireland,Discovery Point,Walk/Nature,4.576638281665538
Cappagh Pier,,,-9.498636999999999,52.62854599999999,Clare,Kilrush,Ireland,Discovery Point,Walk/Nature,4.389877458676732
Mountain Stage,,,-10.034603,52.035924,Kerry,Glenbeigh,Ireland,Discovery Point,Walk/Nature,2.826536082777092
Carrownisky Strand,,,-9.893226,53.735383,Mayo,Louisburgh,Ireland,Discovery Point,Walk/Nature,4.197517682077258
Lackan Strand,,,-9.257448599999998,54.274154,Mayo,,Ireland,Discovery Point,Walk/Nature,7.5688372470764005
Inis Cathaigh - Scattery Island Discovery Point,,,-9.518447007,52.61440511,Clare,Kilrush,Ireland,Discovery Point,Walk/Nature,7.425695650737241
Doughmore Bay,,,-9.504238,52.745639000000004,Clare,Doonbeg,Ireland,Discovery Point,Walk/Nature,7.006717299424929
Ros Goill (Rossguill Peninsula),,,-7.8449062000000005,55.22766899999999,Donegal,Downings,Ireland,Discovery Point,Walk/Nature,5.74156918697013
Inis Bó Finne - Inishbofin Island - Donegal,,,-8.170623921,55.1678058,Donegal,Inishbofin Island,Ireland,Discovery Point,Walk/Nature,5.517672385339972
Cionn Mhucrois (Muckros Head),,,-8.5899407,54.617378,Donegal,Kilcar,Ireland,Discovery Point,Walk/Nature,6.2161740114865704
Beale Strand,,,-9.6312144,52.573972,Kerry,Ballybunion,Ireland,Discovery Point,Walk/Nature,4.009740203765991
Doe Castle View,,,-7.8514212,55.128775,Donegal,,Ireland,Discovery Point,Walk/Nature,5.6539599084946435
Malaidh Ghleann Gheis (Glengesh Pass),,,-8.4845379,54.720577,Donegal,,Republic of Ireland,Discovery Point,Walk/Nature,4.083245428979886
Inch Island,,,-7.4599475,55.054828,Donegal,,Ireland,Discovery Point,Walk/Nature,4.6770192051415815
Ceann Sléibhe (Slea Head) Discovery Point,,,-10.4553373,52.1050217,Kerry,,Ireland,Discovery Point,Walk/Nature,5.873912506079327
Geokaun Mountain,,,-10.345704,51.922484000000004,Kerry,Valentia Island,Ireland,Discovery Point,Walk/Nature,6.0267685785259015
Trá Oilí (Elly Beach),,,-10.086517,54.162316000000004,Mayo,,Republic of Ireland,Discovery Point,Walk/Nature,6.059297733608225
Toe Head Bay,,,-9.2476666,51.493251,Cork,Castletownshend,Ireland,Discovery Point,Walk/Nature,4.561845870550514
Radharc na mBlascaoidí - Blaskets View,,,-10.455488,52.104973,Kerry,Dingle Peninsula,Ireland,Discovery Point,Walk/Nature,5.207018561001311
Cnoc Fola,,,-8.2895011,55.137202,Donegal,,Ireland,Discovery Point,Walk/Nature,5.679835816010417
Inis Bó Finne (Inishbofin Island) - Galway,,,-10.212838,53.614235,Galway,,Ireland,Discovery Point,Walk/Nature,3.794613983919616
Clahane,,,-9.423185,52.93265160000001,Clare,Liscannor,Ireland,Discovery Point,Walk/Nature,7.578878895488753
Kenmare River View,,,-9.985062199999998,51.725184000000006,Cork,Ardgroom,Ireland,Discovery Point,Walk/Nature,3.2525513582020222
Murrooghtoohy,,,-9.2761731,53.140459,Clare,Fanore,Ireland,Discovery Point,Walk/Nature,3.9982594631382047
Horn Head,,,-7.958878599999999,55.212163000000004,Donegal,Dunfanaghy,Ireland,Discovery Point,Walk/Nature,1.9393519670920938
Coomanaspic,,,-10.367267,51.85617,Kerry,Portmagee,Ireland,Discovery Point,Walk/Nature,4.912317821351807
Islands View,,,-9.9892062,53.606991,Galway,Renvyle,Ireland,Discovery Point,Walk/Nature,5.126550130853101
Inishbeg,,,-9.343121,51.527279,Cork,Baltimore,Ireland,Discovery Point,Walk/Nature,7.201515592452754
Port na Feadóige (Gorteen Bay),,,-9.9544582,53.380887,Galway,Roundstone,Ireland,Discovery Point,Walk/Nature,5.026116674027734
Ionad an Bhlascaoid Mhóir,,,-10.4618,52.133076,Kerry,Dingle Peninsula,Ireland,Discovery Point,Walk/Nature,6.607134750470966
Lisfanon Beach,,,-7.478513700000001,55.098802,Donegal,Buncrana,Ireland,Discovery Point,Walk/Nature,7.216036032227628
Lehinch Beach,,,-9.347997300000001,52.933547,Clare,,Ireland,Discovery Point,Walk/Nature,2.921986484231974
Easkey Pier,,,-8.957322847,54.29391877,Sligo,Easkey,Ireland,Discovery Point,Walk/Nature,3.6811051810358246
Ballyvaughan Pier,,,-9.153682,53.119533,Clare,Ballyvaughan,Ireland,Discovery Point,Walk/Nature,4.044304786349614
An Chonair (Conor Pass),,,-10.207747,52.181771000000005,Kerry,Dingle Peninsula,Ireland,Discovery Point,Walk/Nature,5.8286060878824975
Foynes Island - Viewpoint,,,-9.11306,52.613836,Limerick,Foynes,Ireland,Discovery Point,Walk/Nature,5.064451315447062
Srón Bhroin (Brandon Point),,,-10.160739,52.287794,Kerry,Brandon,Ireland,Discovery Point,Walk/Nature,1.5783245171558518
Inis Fraoigh (Inishfree Island),,,-8.44568,54.954042,Donegal,,Ireland,Discovery Point,Walk/Nature,3.723540139659441
Mountcharles Pier,,,-8.2061166,54.630368999999995,Donegal,Mountcharles,Ireland,Discovery Point,Walk/Nature,5.129608941540338
Dublin Falconry,https://www.dublinfalconry.ie/,+353(0)876341574,-6.4222377999999996,53.3794206,Dublin,Castleknock,Ireland,"Falconry,Nature and Wildlife,Learning,Activity Operator,Castle,Historic Houses and Castle,Cafe,Food and Drink",Walk/Nature,8.169090520590375
Angling at Jerpoint Park,http://jerpointpark.com/activities-events/fishing-2/,+353(0)866061449,-7.166836,52.512917,Kilkenny,Thomastown,Ireland,"Fishing,Angling,Activity Operator,Natural Landscape",Walk/Nature,2.4465977366364244
Ballyteigue Strand,http://www.fishingireland.net,,-6.588429147,52.17149917,Wexford,Kilmore Quay,Republic of Ireland,"Fishing,Angling,Beach",Beach,4.768880906416523
River Inny,http://www.fishinginireland.info,35318842600,-7.323131051,53.66843186,Dublin,Swords,Republic of Ireland,"Fishing,Angling,River,Discovery Point",Walk/Nature,3.5913299173066155
Shannon-Erne Waterway Ballinamore,http://www.waterwaysireland.org/places-to-go/shannon-erne-waterway,+353(0)719644855,-7.804921955,54.05289061,Leitrim,Ballinamore,Republic of Ireland,"Fishing,Angling,River,Discovery Point,Boat,Tour",Walk/Nature,4.399089720926306
Knockdrinna Farmhouse Cheese,http://www.knockdrinna.com/,3.53869E+11,-7.2282304,52.536410100000005,Kilkenny,Stoneyford,Ireland,"Food and Drink,Agriculture,Nature and Wildlife,Restaurant,Learning,Shopping,Visitor Farm,Artisan,Cafe,Local Produce,Activity Operator",Shopping,5.836530954365443
Crew Brewing Company,https://www.crewbrewing.ie,,-8.6236997,52.6619598,Limerick,,Ireland,"Food and Drink,Learning,Museums and Attraction,Local Produce,Restaurant,Pubs and Bar",Museum,4.643875717124091
Knappogue Medieval Castle Banquet,http://www.knappoguecastle.ie/medieval-banquet/?_ga=2.37412192.1525066531.1579781977-34006099.1579781977,35366711222,-8.8319382,52.7939498,Clare,Quin,Ireland,"Food and Drink,Restaurant,Activity Operator,Castle,Historic Houses and Castle,Traditionally Irish",House/Castle,6.735437920850211
Roe & Co Whiskey Distillery,https://roeandcowhiskey.com,35316435999,-6.2856618,53.34367660000001,Dublin,Dublin,Ireland,"Food and Drink,Restaurant,Activity Operator,Museums and Attraction,Cafe,Pubs and Bar,Food Shops,Shopping,Tour",Museum,6.434208698616238
Doheny & Nesbitt,http://dohenyandnesbitts.ie/,35316762945,-6.2528309,53.33805,Dublin,Dublin,Ireland,"Food and Drink,Restaurant,Historic Houses and Castle,Pubs and Bar",House/Castle,5.160936983177676
Tig Bhric & West Kerry Brewery,https://westkerrybrewery.ie,3.53877E+11,-10.3863964,52.170402100000004,Kerry,Dingle Peninsula,Ireland,"Food and Drink,Restaurant,Museums and Attraction,Pubs and Bar,Tour",Museum,4.824838122119987
Bushy Park,,+353(0)14900320,-6.292767969,53.30131952,Dublin,Terenure,Republic of Ireland,"Forest Park,Park and Forest Walk,Walking,National Park,National and Forest Park,Public Park,Nature and Wildlife",Walk/Nature,3.68016840688746
Shelmalier Forth Mountain,,+353(0)539239400,-6.573049286,52.31663311,Wexford,Barntown,Republic of Ireland,"Forest Park,Park and Forest Walk,Walking,National Park,National and Forest Park,Public Park,Nature and Wildlife",Walk/Nature,1.0281917643294793
Griffith Park,,+353(0)18373290,-6.261854713,53.37055995,Dublin,Drumcondra,Republic of Ireland,"Forest Park,Park and Forest Walk,Walking,National Park,National and Forest Park,Public Park,Nature and Wildlife",Walk/Nature,6.635410320078753
Merrion Square,,+353(0)16612369,-6.25002,53.3388,Dublin,,Republic of Ireland,"Forest Park,Park and Forest Walk,Walking,National Park,National and Forest Park,Public Park,Nature and Wildlife",Walk/Nature,3.9827060368292675
Tolka Valley Park,,+353(0)18905629,-6.384194116000001,53.39496052,Dublin,Blanchardstown,Republic of Ireland,"Forest Park,Park and Forest Walk,Walking,National Park,National and Forest Park,Public Park,Nature and Wildlife",Walk/Nature,8.055500224109672
City Highlights Walking Tour- Dublin,http://sightwalkingdublin.com/,+353(0)862002480,-6.2604903,53.3396625,Dublin,,Ireland,"Gaa,Walking,Activity Operator,Tour",Walk/Nature,2.101719583665669
Garden Tours of Ireland,https://www.gardentoursofireland.com,35350454688,-7.9378116,52.6518532,Tipperary,,Ireland,"Gardening,Nature and Wildlife,Activity Operator,Gardens,Garden,Tour",Walk/Nature,2.6469951590190655
The Manor Gardens,https://www.discoverireland.ie/Arts-Culture-Heritage/the-manor-gardens/48219,,-9.057847354,51.68778695,Cork,Dunmanway,Republic of Ireland,"Gardening,Nature and Wildlife,Gardens,Garden",Walk/Nature,5.938824175270097
O'Driscoll Garden Centre,https://www.facebook.com/ODriscoll-Garden-Centre-449803402105043/,35350421636,-7.797380400000001,52.67029470000001,Tipperary,,Ireland,"Gardening,Nature and Wildlife,Gardens,Garden",Walk/Nature,4.901721549256737
The Bay Garden,http://www.thebaygarden.com,3.53539E+11,-6.443575,52.608613,Wexford,Camolin,Ireland,"Gardening,Nature and Wildlife,Gardens,Garden",Walk/Nature,3.63665093428408
Clonohill Gardens,https://www.gardensofireland.org/directory/31/,3.53579E+11,-7.625490356,52.98564781,Laois,Coolrain,Ireland,"Gardening,Nature and Wildlife,Gardens,Garden",Walk/Nature,4.28177183307483
Lassanroe Garden,https://www.discoverireland.ie/Arts-Culture-Heritage/lassanroe-garden/71154,3532822563,-9.311018382,51.58731379,Cork,Skibbereen,Republic of Ireland,"Gardening,Nature and Wildlife,Gardens,Garden",Walk/Nature,7.492601992856011
Ballyhist Garden,https://tipperary.com/listings/ballyhist-garden/,3.53527E+11,-7.872028222999999,52.31529252,Tipperary,Ardfinnan,Republic of Ireland,"Gardening,Nature and Wildlife,Gardens,Garden",Walk/Nature,5.81764327931638
Secret Gardens Sligo,https://www.secretgardensofsligo.com/gardens,3.53863E+11,-8.476086439,54.27641929,Sligo,Sligo Town,Ireland,"Gardening,Nature and Wildlife,Gardens,Garden",Walk/Nature,6.826760116126212
Greenfort,http://www.donegalgardentrail.com/site/?page_id=2306,3.53878E+11,-7.65388635,55.13440451,Donegal,Kerrykeel,Republic of Ireland,"Gardening,Nature and Wildlife,Gardens,Garden",Walk/Nature,5.228882630558243
Camas Park Garden,https://www.tipperarytown.ie/see-and-do/camas-park-gardens,3.53863E+11,-7.929296000000001,52.53716,Tipperary,Cashel,Ireland,"Gardening,Nature and Wildlife,Gardens,Garden",Walk/Nature,2.726681213261651
Mornington Garden,http://dalkeygardenschool.com,+353(0)872256365,-6.1132572,53.271755299999995,Dublin,Mornington,Ireland,"Gardening,Nature and Wildlife,Gardens,Garden",Walk/Nature,3.1496864572165855
The Sensory Gardens,,+353(0)578731325,-7.3465802710000006,52.91530961,Laois,Abbeyleix,Republic of Ireland,"Gardening,Nature and Wildlife,Gardens,Garden",Walk/Nature,6.0160946490565115
Tombrick Garden,https://www.discoverireland.ie/Arts-Culture-Heritage/tombrick-garden/76568,3.53539E+11,-6.5690587129999995,52.5809255,Wexford,Ballycarney,Republic of Ireland,"Gardening,Nature and Wildlife,Gardens,Garden",Walk/Nature,4.891974187595262
Ballynacourty Gardens,https://www.limerick.ie/discover/eat-see-do/nature-wildlife/gardens/ballynacourty-gardens,35361396409,-8.935327000000001,52.643399,Limerick,Ballysteen,Republic of Ireland,"Gardening,Nature and Wildlife,Gardens,Garden",Walk/Nature,6.830859769513449
Millennium Garden of Time,https://youghal.ie/,3532420769,-7.854440234,51.95124266,Cork,Youghal,Republic of Ireland,"Gardening,Nature and Wildlife,Gardens,Garden",Walk/Nature,6.476608763786519
St. Columb's Gardens,http://www.donegalgardentrail.com/site/?page_id=2320,3.53749E+11,-7.9031983,55.0044336,Donegal,,Ireland,"Gardening,Nature and Wildlife,Gardens,Garden",Walk/Nature,7.00466272051035
Celtic Plantarum Dundrum,https://www.garden.ie/gardenstosee/celtic-plantarum-dundrum/,3536271303,-8.04394294,52.5576255,Tipperary,Dundrum,Republic of Ireland,"Gardening,Nature and Wildlife,Gardens,Garden",Walk/Nature,5.53270706436372
Garraí Fadó Garden,https://www.facebook.com/Garra%C3%AD-Fad%C3%B3-Garden-Beara-156532801063072,3532774844,-9.955257441,51.68546683,Cork,Eyeries,Ireland,"Gardening,Nature and Wildlife,Gardens,Garden,Food Shops,Shopping",Shopping,6.3847753324909
Dublin Garden Trail,http://www.dublingardens.com, +353(0)12819422,-6.189413,53.298931,Dublin,Blackrock,Republic of Ireland,"Gardening,Nature and Wildlife,Gardens,Garden,Tour",Walk/Nature,5.026585311911505
Country Cottage Stables,https://countrycottagestables.ie/,3.53862E+11,-6.1836720000000005,53.163410999999996,Wicklow,Enniskerry,Ireland,"Gardening,Nature and Wildlife,Horse Riding,Equestrian,Activity Operator,Gardens,Garden,Shopping,Cafe,Food and Drink,Food Shops",Shopping,3.7809124326644232
The Dillon Garden,http://www.dillongarden.com,35312148740,-6.1596570999999996,53.2954544,Dublin,Monkstown,Ireland,"Gardening,Nature and Wildlife,Learning,Gardens,Garden,Tour",Walk/Nature,2.7025323656373805
Wexford Garden Trail,http://www.wexfordgardentrail.com,,-6.992454254,52.29638937,Wexford,,Ireland,"Gardening,Nature and Wildlife,Walking,Gardens,Garden",Walk/Nature,5.786921292784075
The Four Courts,http://www.courts.ie/,+353(0)18886000,-6.273526,53.345909999999996,Dublin,,Republic of Ireland,Historic Houses and Castle,House/Castle,5.732825704413151
Waterloo Round Tower,http://www.irishstones.org/place.aspx?p=1232,,-8.573711999999999,51.954691,Cork,Blarney,Republic of Ireland,Historic Houses and Castle,House/Castle,8.871362529517183
Old Coastguard Station,http://www.jamescahill.com/coastguardstation.html,3.53949E+11,-9.6208477,53.821318299999994,Mayo,,Ireland,Historic Houses and Castle,House/Castle,6.0525280851316134
General Post Office,http://www.anpost.ie/AnPost/History+and+Heritage/History/GPO+Dublin/,+353(0)17057000,-6.260654,53.349332999999994,Dublin,,Republic of Ireland,"Historic Houses and Castle,Cafe,Food and Drink,Food Shops,Shopping",Shopping,2.302027873575779
Kilbolane Castle,https://visitballyhoura.com/explore/kilbolane-castle,3536391300,-8.8468668,52.3377252,Cork,,Ireland,"Historic Houses and Castle,Castle",House/Castle,6.158582180611434
Swords Castle,https://swordscastle.events/,+353(0)1840 0891,-6.220338,53.459928000000005,Dublin,Swords,Republic of Ireland,"Historic Houses and Castle,Castle,Tour",House/Castle,4.69582351264359
The Black Church,https://www.dublincity.ie/dublin-buildings/black-church,,-6.2679431,53.3546532,Dublin,,Ireland,"Historic Houses and Castle,Church Abbey,Monastery,Churches,Abbeys and Monastery",Church/Monastery,4.872791598607029
Lusk Round Tower,https://www.heritageireland.ie/en/midlands-eastcoast/luskheritagecentre/,+353(0)18331618,-6.167107,53.526025,Dublin,Lusk,Republic of Ireland,"Historic Houses and Castle,Church Abbey,Monastery,Churches,Abbeys and Monastery",Church/Monastery,5.892591081140074
Christ Church Castlebar,http://www.tuam.anglican.org/aughaval-westport/castlebar-christ-church,,-9.299977,53.85441899999999,Mayo,Castlebar,Republic of Ireland,"Historic Houses and Castle,Church Abbey,Monastery,Churches,Abbeys and Monastery",Church/Monastery,6.2280323627453
St John's Cathedral Sligo,http://www.sligocathedral.elphin.anglican.org,3.53719E+11,-8.478143,54.270235,Sligo,Sligo Town,Republic of Ireland,"Historic Houses and Castle,Church Abbey,Monastery,Churches,Abbeys and Monastery",Church/Monastery,5.765888156991324
Swords Round Tower & Belfry,http://swords.dublin.anglican.org,+353(0)18956747,-6.224459099999999,53.4576831,Dublin,Swords,Ireland,"Historic Houses and Castle,Church Abbey,Monastery,Churches,Abbeys and Monastery",Church/Monastery,5.2402299673343915
Tourin House & Gardens,http://tourin.ie/,3535854405,-7.8641684000000005,52.120219299999995,Waterford,Cappoquin,Ireland,"Historic Houses and Castle,Gardens,Garden",House/Castle,5.000650717723686
Áras an Uachtaráin,http://www.president.ie/en,+353(0)16770095,-6.311431,53.36161800000001,Dublin,Phoenix Park,Republic of Ireland,"Historic Houses and Castle,Gardens,Garden,Tour",House/Castle,5.435756207624518
James Joyce House of the Dead,http://www.jamesjoycehouse.ie,,-6.282819,53.34629,Dublin,Dublin City Centre,Republic of Ireland,"Historic Houses and Castle,Literary Ireland",House/Castle,6.97014523152156
F. W. Sweny & Co. Ltd.,http://sweny.ie/site/,+353(0)858146713,-6.250578476,53.34188602,Dublin,Dublin City,Ireland,"Historic Houses and Castle,Literary Ireland,Food Shops,Shopping",Shopping,8.282579553957653
Dwyer McAllister Cottage,http://www.heritageireland.ie/en/midlands-eastcoast/dwyermcallistercottage,35340445325,-6.564810799999999,52.961926899999995,Wicklow,Donard,Ireland,"Historic Houses and Castle,Museums and Attraction",Museum,5.04517980890343
Dublin City Hall,http://www.dublincityhall.ie,+353(0)12222204,-6.267149169,53.34392243,Dublin,,Republic of Ireland,"Historic Houses and Castle,Museums and Attraction,Cafe,Food and Drink",Museum,5.284485745791135
Freemasons Hall,http://freemason.ie/,+353(0)16761337,-6.255966,53.341080000000005,Dublin,,Republic of Ireland,"Historic Houses and Castle,Museums and Attraction,Food Shops,Shopping,Tour",Museum,3.467378343267895
Casino Model Railway Museum,http://www.modelrailwaymuseum.ie ,35361711222,-6.1582704,53.450576299999994,Dublin,Malahide,Ireland,"Historic Houses and Castle,Museums and Attraction,Tour",Museum,8.86249004208123
Master McGrath Monument,https://www.buildingsofireland.ie/buildings-search/building/22903003/master-mcgrath-monument-ballymacmague-south-county-waterford,3535841741,-7.621652,52.088003,Waterford,Dungarvan,Republic of Ireland,"Historic Houses and Castle,Public Sculpture",House/Castle,7.097178868450766
Tours Of The Government Buildings,http://www.taoiseach.gov.ie,+353(0)16194116,-6.25366,53.338393,Dublin,Dublin City Centre,Republic of Ireland,"Historic Houses and Castle,Tour",House/Castle,4.587251032228938
Government Buildings,http://www.taoiseach.gov.ie,+353(0)16194249,-6.254129,53.339374,Dublin,,Republic of Ireland,"Historic Houses and Castle,Tour",House/Castle,5.81275776770439
Leinster House,http://www.oireachtas.ie/parliament/visitsevents/,+353(0)16183271,-6.254251999999999,53.340121999999994,Dublin,Dublin City,Republic of Ireland,"Historic Houses and Castle,Tour",House/Castle,7.20406236339495
City Hall Cork,https://www.corkcity.ie/en/,3.53215E+11,-8.464807,51.8965976,Cork,Cork City,Ireland,"Historic Houses and Castle,Venue,Comedy,Music",House/Castle,4.421371429127081
The Gaiety Theatre,http://www.gaietytheatre.ie,+353(0)16468600,-6.26163,53.340387,Dublin,,Republic of Ireland,"Historic Houses and Castle,Venue,Comedy,Music,Cafe,Food and Drink,Food Shops,Shopping,Tour",Shopping,3.905129338081014
12 Henrietta Street,http://thedrawingroom.ie/,+353(0)862746153,-6.2705757,53.3524569,Dublin,Dublin City Centre,Ireland,"Historic Houses and Castle,Venue,Music",House/Castle,4.4752178217576075
Kayaking.ie,http://www.kayaking.ie,3.53862E+11,-6.093727731,53.27486714,Dublin,Dalkey,Ireland,"Kayaking,Activity Operator,River,Discovery Point,Boat,Tour",Walk/Nature,5.5173614190944065
Díseart,http://www.diseart.ie,3.53669E+11,-10.270519,52.1418479,Kerry,Dingle,Ireland,"Learning,Church Abbey,Monastery,Churches,Abbeys and Monastery,Gardens,Garden",Church/Monastery,5.4502959826706485
Irish Georgian Society,http://www.igs.ie,+353(0)16798675,-6.250557,53.338964000000004,Dublin,Dublin,Republic of Ireland,"Learning,Historic Houses and Castle,Food Shops,Shopping,Tour",Shopping,3.8654728956589914
Geological Museum,https://trinitygeologicalmuseum.com/,+353(0)18961477,-6.2612190000000005,53.34447900000001,Dublin,Dublin City Centre,Republic of Ireland,"Learning,Historic Houses and Castle,Museums and Attraction",Museum,4.970264167665346
Royal Irish Academy,http://www.ria.ie,+353(0)16762570,-6.2580849999999995,53.340716,Dublin,Dublin City Centre,Republic of Ireland,"Learning,Historic Houses and Castle,Museums and Attraction",Museum,6.372686912976175
The James Joyce Centre,http://www.jamesjoyce.ie,+353(0)18788547,-6.259988,53.354156999999994,Dublin,,Republic of Ireland,"Learning,Historic Houses and Castle,Museums and Attraction,Literary Ireland,Food Shops,Shopping,Tour,Walking",Museum,4.628955455462521
Nano Nagle Centre,http://www.nanonaglebirthplace.ie,3532226411,-8.522730000000001,52.151270000000004,Cork,,Ireland,"Learning,Museums and Attraction",Museum,3.5425299915846877
Shannon Dolphin and Wildlife Centre,http://www.shannondolphins.ie,3.53659E+11,-9.4969951,52.6350948,Clare,Kilrush,Ireland,"Learning,Museums and Attraction",Museum,5.512981281830019
Zoological Museum,http://www.tcd.ie/Zoology/museum/,+353(0)18961366,-6.251858,53.34318100000001,Dublin,,Ireland,"Learning,Museums and Attraction,Food Shops,Shopping",Museum,2.4394651609942604
Seamus Heaney: Listen Now Again,https://www.nli.ie/en/udlist/current-exhibitions.aspx?article=0ebd1d65-6087-4f38-a2a0-467de598b745,,-6.2594127,53.345083200000005,Dublin,Dublin City,Republic of Ireland,"Learning,Museums and Attraction,Literary Ireland",Museum,6.168602350721905
Yeats: The Life and Works of William Butler Yeats,http://www.nli.ie/yeats,+353(0)16030277,-6.254641,53.341081,Dublin,Dublin City,Republic of Ireland,"Learning,Museums and Attraction,Literary Ireland,Cafe,Food and Drink,Food Shops,Shopping",Museum,6.445472146801974
National Folklore Collection,http://www.ucd.ie/irishfolklore,+353(0)17168216,-6.21882,53.30680741,Dublin,,Ireland,"Learning,Museums and Attraction,Literary Ireland,Cafe,Food and Drink,Tour",Museum,5.694120780009622
Clasac,http://www.clasac.ie,+353(0)18363060,-6.230766,53.360651000000004,Dublin,Clontarf,Republic of Ireland,"Learning,Museums and Attraction,Traditionally Irish,Venue,Music,Food Shops,Shopping",Museum,9.105710513333962
Leprechaun and Fairy Cavern,http://www.thelastleprechaunsofireland.com/the-leprechaun-cavern,3.53429E+11,-6.177470008999999,54.04140882,Louth,Carlingford,Ireland,"Learning,Museums and Attraction,Venue,Comedy,Tour",Museum,4.030184393187352
Kerry International Dark-Sky Reserve,http://www.kerrydarkskytourism.com/,+353(0)877845688,-10.09249034,52.02430573,Kerry,,Ireland,"Learning,Photography,Natural Landscape",Walk/Nature,5.910461499388306
National Archives of Ireland,http://www.nationalarchives.ie,35314072300,-6.268747,53.338802,Dublin,Dublin City,Republic of Ireland,"Learning,Tracing Your Ancestors,Museums and Attraction",Museum,4.647764410871172
Swords Museum  and Fingal Genealogy,http://www.swordsheritage.com,35318400080,-6.2181267,53.4627797,Dublin,Swords,Ireland,"Learning,Tracing Your Ancestors,Museums and Attraction",Museum,3.907417882615293
Genealogy Service National Library of Ireland,https://www.nli.ie/en/intro/family-history-introduction.aspx,35316030200,-6.25509,53.340139,Dublin,Dublin City Centre,Republic of Ireland,"Learning,Tracing Your Ancestors,Museums and Attraction,Cafe,Food and Drink,Food Shops,Shopping",Museum,4.01471251211707
Pearse Street Library,http://www.dublincity.ie/main-menu-services-recreation-culture-dublin-city-public-libraries-and-archive-locations-hours-19,+353(0)16744888,-6.245275,53.343092000000006,Dublin,Dublin City,Republic of Ireland,"Learning,Tracing Your Ancestors,Museums and Attraction,Literary Ireland,Cafe,Food and Drink",Museum,4.370049152124059
Irish Jewish Museum,http://www.jewishmuseum.ie/,+353(0)14531797,-6.269414,53.330748,Dublin,South Circular Road,Republic of Ireland,"Learning,Tracing Your Ancestors,Museums and Attraction,Tour",Museum,2.9183476759789224
Burren Experience Guided Walks,http://www.mullaghmore-burren.com,3.53868E+11,-9.062701254,52.94492049,Clare,Corofin,Ireland,"Learning,Walking,Activity Operator,National Park,National and Forest Park,Tour",Walk/Nature,4.952782859316523
Ardgillan Demesne,http://www.facebook.com/ardgillancastle,+353(0)18492212,-6.159029692000001,53.58716314,Dublin,Balbriggan,Republic of Ireland,"Learning,Walking,Gardens,Garden,Historic Houses and Castle,Public Park,Nature and Wildlife,Cafe,Food and Drink,Food Shops,Shopping,Tour",Shopping,3.5298550183192585
O'Reilly Theatre,http://www.oreillytheatre.com,+353(0)1858 6690,-6.262116000000001,53.355509999999995,Dublin,,Republic of Ireland,"Literary Ireland,Venue,Music,Food Shops,Shopping",Shopping,2.326335937768012
Irish Film Institute,http://ifi.ie/archive,35316793477,-6.264943,53.344623999999996,Dublin,,Republic of Ireland,"Movies,Cinema,Venue,Museums and Attraction,Cafe,Food and Drink,Activity Operator,Food Shops,Shopping",Museum,4.739061580457854
Garfinny Bridge,https://dingle-peninsula.ie/component/zoo/item/garfinny-bridge.html,,-10.219192999999999,52.140079,Kerry,Dingle,Republic of Ireland,Museums and Attraction,Museum,3.210231562411505
Belcarra Eviction Cottage,http://www.museumsofmayo.com/eviction-cottage/eviction-cottage-belcarra.html,3.53879E+11,-9.219028100000001,53.812900600000006,Mayo,Castlebar,Ireland,Museums and Attraction,Museum,6.019430779361885
Granuaile Visitor Centre,https://www.irishtourist.com/things-to-do/granuaile-visitor-centre,3539866341,-9.809611,53.763985,Mayo,Louisburgh,Republic of Ireland,Museums and Attraction,Museum,3.189305455038366
Inishbofin Heritage Museum & Gift Shop,https://www.facebook.com/InishbofinHeritageMuseum,3.5388E+11,-10.206749,53.613395,Galway,Inishbofin,Ireland,Museums and Attraction,Museum,6.965229247483588
The Irish Pewtermill Centre,,+353(0)879090044,-6.8094676320000005,52.98488874,Kildare,Moone,Republic of Ireland,Museums and Attraction,Museum,6.340274638448729
Michael J Quill Centre,http://www.historic-ireland.com/places/778.html,3.53647E+11,-9.46143,51.902656,Kerry,Kilgarvan,Republic of Ireland,Museums and Attraction,Museum,7.387206613625722
Father Murphy Centre,https://www.facebook.com/Fr-Murphy-Centre-Boolavogue-315611758499163,3.53539E+11,-6.4107807999999995,52.5485902,Wexford,Boolavogue,Ireland,Museums and Attraction,Museum,6.2087772820179215
Mooghaun Bronze Age Hillfort,,,-8.8792287,52.78218670000001,Clare,,Ireland,Museums and Attraction,Museum,4.027603221897635
The Butter Slip - Kilkenny,,,-7.252329391,52.65236152,Kilkenny,Kilkenny City,Ireland,Museums and Attraction,Museum,5.163679935984784
Maynooth Ecclesiastical Museum,http://museum.maynoothcollege.ie,3.53879E+11,-6.598101700000001,53.3786106,Kildare,Maynooth,Ireland,Museums and Attraction,Museum,2.6521570687688025
The Hooker Brewery,http://www.galwayhooker.ie,3.53878E+11,-8.92873146,53.2693066,Galway,Oranmore,Republic of Ireland,Museums and Attraction,Museum,4.123090545755489
The Emigrant Trail,http://www.heritageisland.com/attractions/kennedy-homestead-and-emigrant-trail,35351388264,-6.947598722,52.39361615,Wexford,New Ross,Ireland,Museums and Attraction,Museum,5.806438147240124
Kenmare Heritage Centre,,3.53647E+11,-9.584642,51.880807,Kerry,Kenmare,Republic of Ireland,Museums and Attraction,Museum,5.0999796821361185
Poet's Cottage,http://www.laois.ie/departments/heritage/laois-heritage-trail/poets-cottage,,-7.5924095000000005,53.0048261,Laois,,Ireland,Museums and Attraction,Museum,6.64604906252843
Isaac Butt Heritage Centre,https://www.facebook.com/isaacbuttheritagecommittee,3.53749E+11,-7.932474900000001,54.8384012,Donegal,,Ireland,Museums and Attraction,Museum,6.043120357549404
West Cork Heritage Centre,https://westcorkheritagecentre.com,3.53239E+11,-8.736636599999999,51.74673060000001,Cork,Bandon,Ireland,Museums and Attraction,Museum,6.279763531896165
West Gate Heritage Tower,http://wexfordhub.com/history/westgate-tower,3.53539E+11,-6.466286,52.341426,Wexford,,Republic of Ireland,Museums and Attraction,Museum,6.131489169233058
Youghal Heritage Centre,https://youghal.ie/organisation/youghal-heritage-centre/,3532420170,-7.845717,51.953087,Cork,Youghal,Republic of Ireland,"Museums and Attraction,Food Shops,Shopping",Museum,5.661900282996891
St. Kilians Heritage Centre,http://www.stkiliansheritagecentre.ie,3.53469E+11,-6.956985700000001,53.8126897,Cavan,Mullagh,Ireland,"Museums and Attraction,Shopping,Cafe,Food and Drink,Tour",Museum,2.9523816699628354
JJ Corry Irish Whiskey Experience,https://www.chapelgatewhiskey.com,3.53864E+11,-9.4353561,52.67702320000001,Clare,,Ireland,"Museums and Attraction,Tour",Museum,3.7326562981393456
Kilbrittain Whale,,+353(0)862567084,-8.6917337,51.6735577,Cork,Kilbrittain,Ireland,Natural Landscape,Walk/Nature,3.1172365353483813
The Donegal Gaeltacht,,,-8.110714100000001,54.654486999999996,Donegal,Glencolmcille,Ireland,Natural Landscape,Walk/Nature,5.76318955818783
Patrickstown Viewing Point,,,-7.085113000000001,53.749759999999995,Meath,Oldcastle,Ireland,Natural Landscape,Walk/Nature,5.84907697171503
"The Glen, Strandhill",,,-8.580854643,54.26105082,Sligo,Strandhill,Ireland,Natural Landscape,Walk/Nature,3.453213466790083
"St Peter's Roman Catholic Church, Drogheda",http://www.saintpetersdrogheda.ie,3.5342E+11,-6.353372599999999,53.7150105,Louth,Drogheda,Ireland,"Photography,Learning,Historic Houses and Castle,Church Abbey,Monastery,Churches,Abbeys and Monastery",Church/Monastery,6.932544727267521
Tarbert Bridewell Courthouse & Jail Museum,http://www.tarbertbridewell.com,3536836500,-9.3764602,52.573661,Kerry,Tarbert,Ireland,"Photography,Learning,Historic Houses and Castle,Museums and Attraction,Cafe,Food and Drink,Food Shops,Shopping",Museum,5.494930460129275
Monasterboice High Cross and Round Tower,https://www.visitlouth.ie/explore-and-do/explore-louth/sacred-sites-louth/monasterboice-high-cross-and-round-tower.html,3.5342E+11,-6.4177232,53.7777634,Louth,,Ireland,"Photography,Learning,Walking,Historic Houses and Castle,Church Abbey,Monastery,Churches,Abbeys and Monastery,Ruins,Tour",Walk/Nature,0.8716966259095331
Top of the Rock Viewing Platform Trail,https://facebook.com/rockviewingplatform,+353(0)872989250,-10.25257468,51.96038621,Kerry,Cahersiveen,Ireland,"Photography,Learning,Walking,Natural Landscape",Walk/Nature,5.332383191120517
Killiney  Hill,http://www.dlrcoco.ie/parks/killiney.html,+353(0)12047275,-6.107273729,53.2703464,Dublin,Killiney,Ireland,"Photography,Learning,Walking,Natural Landscape,Public Park,Nature and Wildlife,Cafe,Food and Drink",Walk/Nature,2.879122569811253
Wood Quay,http://www.visitdublin.com/dublin-a-to-z/details/wood-quay/49834/,+353(0)14370969,-6.26098,53.343599,Dublin,,Republic of Ireland,"Public Sculpture,Ruins,Historic Houses and Castle",House/Castle,6.333244759935269
Cú Chulainn,http://www.talkingstatuesdublin.ie/statues/cu-chulainn/,,-6.260721,53.349349,Dublin,,Ireland,"Public Sculpture,Talking Statue,Cafe,Food and Drink,Food Shops,Shopping",Shopping,3.343541908406925
Inis Mór (Inishmore) Seaport,,,-9.719242279,53.13713245,Galway,Aran Islands,Ireland,"Restaurant,Bird Watching,Nature and Wildlife,Cycling,Shopping,Shopping Centres and Department Store,Swimming,Swimming Pools and Water Park,Venue,Walking,Discovery Point,Island,Offshore Island,Local Produce,Food and Drink,Pubs and Bar",Shopping,4.018924524100366
Croke Park Stadium,https://crokepark.ie/,35315821593,-6.252428,53.361245,Dublin,Dublin City,Republic of Ireland,"Restaurant,Gaa,Stadium,Sports Venue,Venue,Music,Sports Venues,Cafe,Food and Drink,Fast Food,Activity Operator,Food Shops,Shopping,Tour",Shopping,4.406253922467787
University College Cork -UCC,http://www.ucc.ie/en/discover,3.53215E+11,-8.492377000000001,51.89182,Cork,Cork City,Republic of Ireland,"Restaurant,Historic Houses and Castle,Cafe,Food and Drink",House/Castle,7.811813396771804
Maynooth Campus Conference & Accommodation,http://www.maynoothcampus.com,+353(0)17086400,-6.5927578570000005,53.37649551,Kildare,Maynooth,Republic of Ireland,"Restaurant,Learning,Historic Houses and Castle,Food and Drink",House/Castle,5.269826118257411
IMI Conference Centre & Residence,http://www.imi.ie/,+353(0)12078400,-6.231596,53.275966000000004,Dublin,Sandyford,Republic of Ireland,"Restaurant,Learning,Historic Houses and Castle,Food and Drink,Food Shops,Shopping",Shopping,5.129260567985195
Cahervagliar Fort,http://www.coppeenheritage.com/archives/cahir/index.html,3532646078,-8.996941,51.792933000000005,Cork,Coppeen,Republic of Ireland,"Ruins,Historic Houses and Castle",House/Castle,4.520240090295192
Rathgall Stone Fort,,,-6.663035000000001,52.802231799999994,Wicklow,,Ireland,"Ruins,Historic Houses and Castle",House/Castle,2.565701760780668
Books@One,https://www.booksatone.ie/,3539866885,-9.809876199999998,53.762649399999994,Mayo,Louisburgh,Ireland,"Shopping,Shopping Centres and Department Store,Literary Ireland,Cafe,Food and Drink,Food Shops",Shopping,6.007962890809799
Rare and Recent Books,https://www.rareandrecent.com/,3.53852E+11,-9.286348,53.541368799999994,Mayo,,Ireland,"Shopping,Shopping Centres and Department Store,Literary Ireland,Food Shops",Shopping,5.4487056093531026
Cross Strand Beach,http://www.cleancoastsireland.org/,,-9.909850127999999,53.71633236,Mayo,Louisburgh,Ireland,"Surfing,Activity Operator,Beach",Beach,4.222362034122129
Front Strand Beach,https://youghal.ie/top-10-things-to-do/youghal-beaches/,+353(0)2420769,-7.851509,51.937915000000004,Cork,Youghal,Republic of Ireland,"Surfing,Activity Operator,Swimming,Swimming Pools and Water Park,Venue,Walking,Beach",Walk/Nature,4.06637633547812
Bishop's Quarter ,,,-9.127942,53.129128099999996,Clare,Ballyvaughan,Ireland,"Swimming,Swimming Pools and Water Park,Venue,Beach,Natural Landscape",Walk/Nature,7.578562846738137
Dodd's Rock Beach,,,-6.213459105,52.663357,Wexford,Courtown,Republic of Ireland,"Swimming,Swimming Pools and Water Park,Venue,Walking,Beach",Walk/Nature,0.9120858998710331
Garryvoe Beach,https://www.ringofcork.ie/listings/garryvoe-beach/,+353(0)214613432,-7.9997300000000005,51.865968,Cork,Garryvoe,Republic of Ireland,"Swimming,Swimming Pools and Water Park,Venue,Walking,Beach",Walk/Nature,6.606729972261975
North Tipperary Genealogy Centre,http://www.tipperarycoco.ie/heritage/genealogy-centre,3536733850,-8.200283933,52.86578066,Tipperary,Nenagh,Republic of Ireland,"Tracing Your Ancestors,Museums and Attraction",Museum,4.858582576215689
South Mayo Family Research Centre,http://www.mayo.irishroots.net/,3.5395E+11,-9.222428,53.623484999999995,Mayo,Ballinrobe,Republic of Ireland,"Tracing Your Ancestors,Museums and Attraction",Museum,6.062765607282996
Railway Preservation Society Of Ireland,http://www.steamtrainsireland.com,+353(0)14800553,-6.152749,53.282627000000005,Dublin,,Republic of Ireland,"Transport,Activity Operator,Museums and Attraction,Coach,Road",Museum,5.408342297916551
Architectural History Ireland,https://www.riai.ie/discover-architecture/architecture-tours,+353(0)16761703 ,-6.2473358,53.3399625,Dublin,,Ireland,"Walking,Activity Operator,Historic Houses and Castle,Tour",Walk/Nature,4.970901573666277
Angela's Ashes Walking Tour,https://www.limerick.ie/discover/eat-see-do/tours/angelas-ashes-walking-tours,+353(0)833000111,-8.62566,52.6653,Limerick,,Republic of Ireland,"Walking,Activity Operator,Literary Ireland,Tour",Walk/Nature,6.8091308020345185
Ballybunion 'Walking the Beach' Looped Walk,http://www.irishtrails.ie/Trail/Ballybunion-Loops---Beach-Walk/607/,+353(0)667121288,-9.671727706,52.52350188,Kerry,Ballybunion,Republic of Ireland,"Walking,Beach,Natural Landscape",Walk/Nature,3.7380663221557855
Emlagh Loop,http://www.irishtrails.ie/trail/Emlagh-Loop/685/,,-10.27308976,51.82468114,Kerry,,Ireland,"Walking,Beach,Natural Landscape",Walk/Nature,5.219311302553876
Listowel River Walk,http://www.irishtrails.ie/Trail/Listowel-Village-Walks---River-Walk/609/,,-9.483925274,52.44712012,Kerry,Listowel,Republic of Ireland,"Walking,Castle,Historic Houses and Castle,Public Park,Nature and Wildlife,Public Sculpture",Walk/Nature,4.292110331633118
Rinn Duin - Warren Point Loop,https://www.sportireland.ie/outdoors/walking/trails/rinn-duin-warren-point-loop?county=53&grade=402&length=All#list,3.53907E+11,-7.996944291,53.54103449,Roscommon,,Republic of Ireland,"Walking,Castle,Historic Houses and Castle,Ruins",Walk/Nature,5.152854378025447
Rinn Duin Castle Loop,https://www.sportireland.ie/outdoors/walking/trails/rinn-duin-castle-loop?county=53&grade=402&length=All#list,+353(0)906630252,-8.00432573,53.54419666,Roscommon,,Republic of Ireland,"Walking,Castle,Historic Houses and Castle,Ruins",Walk/Nature,6.216465787875494
Esker Monastery Retreat,http://www.facebook.com/Esker-Redemptorists-251128325046360/,+353(0)91844007,-8.683624,53.282256999999994,Galway,Kiltullagh,Republic of Ireland,"Walking,Church Abbey,Monastery,Churches,Abbeys and Monastery,Activity Operator",Walk/Nature,2.938897915508103
Bog of Frogs Trail,https://visithowth.ie/the-bog-of-frogs-trail/,35318323347,-6.066380923,53.38800343,Dublin,Howth,Republic of Ireland,"Walking,Forest Park,Park and Forest Walk,Marina,Venue,Natural Landscape",Walk/Nature,3.997845871459538
Dun na Rí Forest Park,http://www.coillte.ie/site/dun-a-ri-forest-park/,+353(0)494331942,-6.792601382000001,53.91922203,Cavan,Kingscourt,Republic of Ireland,"Walking,Forest Park,Park and Forest Walk,National Park,National and Forest Park,Public Park,Nature and Wildlife",Walk/Nature,6.22016999983768
Balrath Wood,,+353(0)18358022,-6.952315923,53.70557053,Meath,Balrath,Republic of Ireland,"Walking,Forest Park,Park and Forest Walk,National Park,National and Forest Park,Public Park,Nature and Wildlife",Walk/Nature,7.087601109346511
Glanageenty Loop,http://www.irishtrails.ie/Trail/Glanageenty-loop-/112/,,-9.458949696,52.23297151,Kerry,,Ireland,"Walking,Forest Park,Park and Forest Walk,Natural Landscape",Walk/Nature,5.215193860380266
Coolmelagh - Prospect Loop,http://www.irishtrails.ie/Trail/Coolmelagh---Prospect-Loop/427/,,-6.580390652,52.68619666,Wexford,Bunclody,Ireland,"Walking,Forest Park,Park and Forest Walk,Natural Landscape",Walk/Nature,3.4355693580257674
Salterbridge House Gardens,http://www.salterbridgehouseandgarden.com/,3535854952,-7.880476700000001,52.1489749,Waterford,Cappoquin,Ireland,"Walking,Gardens,Garden",Walk/Nature,6.131973775023839
Monksgrange Garden & Norman Gallery,http://www.monksgrangegarden.com,3.53539E+11,-6.7837777,52.5178443,Wexford,,Ireland,"Walking,Gardens,Garden",Walk/Nature,4.34072622060269
Aultaghreagh Cottage Garden,http://www.aultaghreaghcottagegarden.com,3.53239E+11,-9.083913637,51.77792113,Cork,Dunmanway,Republic of Ireland,"Walking,Gardens,Garden",Walk/Nature,6.033809231160159
Liss Ard Gardens,https://lissardestate.ie/,3532840000,-9.25326172,51.53755547,Cork,Skibbereen,Republic of Ireland,"Walking,Gardens,Garden",Walk/Nature,1.135098551255473
Glebe Gardens,http://www.glebegardens.com,3532820579,-9.361088,51.484541,Cork,Baltimore,Ireland,"Walking,Gardens,Garden",Walk/Nature,3.779234973734664
Ballynatray Gardens,http://www.ballynatray.com,3532497463,-7.887014,51.995470000000005,Cork,Youghal,Ireland,"Walking,Gardens,Garden",Walk/Nature,5.889367549098892
Cappoquin House Gardens,https://www.cappoquinhouseandgardens.com,3535854290,-7.850339900000001,52.1494507,Waterford,Cappoquin,Ireland,"Walking,Gardens,Garden,Historic Houses and Castle,Tour",Walk/Nature,6.110353611118932
Jenkinstown Wood - Walled Garden Loop,http://www.irishtrails.ie/Trail/Jenkinstown-Wood---Walled-Garden-loop/124/,,-7.289804987,52.73050689,Kilkenny,Jenkinstown,Ireland,"Walking,Gardens,Garden,Natural Landscape",Walk/Nature,5.099303669269986
"Victorian People's Flower Gardens, Phoenix Park",http://phoenixpark.ie/what-to-see/,+353(0)18213021,-6.2996629010000005,53.35038531,Dublin,Phoenix Park,Ireland,"Walking,Gardens,Garden,Public Park,Nature and Wildlife,Cafe,Food and Drink",Walk/Nature,5.984401306320844
Dromana House Gardens,https://dromanahouse.com,3532496144,-7.8651795,52.1075711,Waterford,Cappoquin,Ireland,"Walking,Gardens,Garden,Tour",Walk/Nature,3.6260400984472785
Cappoquin House,https://www.cappoquinhouseandgardens.com,3.53877E+11,-7.850339900000001,52.1494507,Waterford,Cappoquin,Ireland,"Walking,Historic Houses and Castle,Gardens,Garden,Tour",Walk/Nature,3.4610680772793976
Carlow Town Walk - Slí na Sláinte,https://carlowtourism.com/carlow-town-walk/,3.53599E+11,-6.929488900000001,52.8352498,Carlow,,Ireland,"Walking,Historic Houses and Castle,Public Park,Nature and Wildlife",Walk/Nature,5.886591136616859
Fawnglass Loop,https://www.irishtrails.ie/trail/Clare-Island---Fawnglass-loop/143/,,-9.988141954,53.79245548,Mayo,Clare Island,Republic of Ireland,"Walking,Island,Offshore Island",Walk/Nature,3.3003559380344893
Inishbiggle - Gubnadoogha Loop Walk,http://www.irishtrails.ie/Trail/Achill-Island---Gubnadoogha-Loop/494/,,-9.908755107000001,53.99601459,Mayo,Ballycroy,Republic of Ireland,"Walking,Island,Offshore Island",Walk/Nature,2.810755502099723
Inishbiggle - Bull's Mouth Loop Walk,http://www.irishtrails.ie/Trail/Achill-Island---Bull-s-Mouth-Loop/495/,,-9.900782034,53.99511637,Mayo,,Republic of Ireland,"Walking,Island,Offshore Island",Walk/Nature,4.306079790427134
Black Linn Loop,https://visithowth.ie/the-black-linn-loop-walk/,35318323347,-6.065795119,53.38799393,Dublin,Howth,Republic of Ireland,"Walking,Marina,Venue,Natural Landscape",Walk/Nature,6.642265008579097
Jenkinstown Wood Loop,http://www.irishtrails.ie/Trail/Jenkinstown-Wood---Jenkinstown-Wood-loop/125/,,-7.284483484,52.73116958,Kilkenny,Kilkenny City,Ireland,"Walking,Natural Landscape",Walk/Nature,4.372403958677622
Castlemorris - Pheasant loop,http://www.irishtrails.ie,,-7.278881548999999,52.470501600000006,Kilkenny,Knocktopher,Ireland,"Walking,Natural Landscape",Walk/Nature,4.3773084420157655
Abbeyleix Loops - Killamuck Bog,http://www.irishtrails.ie/Trail/Abbeyleix-Loops---Killamuck-Bog-loop/623/,,-7.353079202999999,52.90683053,Laois,Abbeyleix,Ireland,"Walking,Natural Landscape",Walk/Nature,4.916409749819656
Slieve Bloom Mountains,,,-7.567222200000001,53.0933333,Laois,,Ireland,"Walking,Natural Landscape",Walk/Nature,3.127432126715279
Freshford Loop,http://www.trailkilkenny.ie,,-7.3997411689999995,52.73450163,Kilkenny,Freshford,Republic of Ireland,"Walking,Natural Landscape",Walk/Nature,4.7450679019581905
Fionn MacCool Loop,http://www.irishtrails.ie/Trail/Fionn-MacCool-Loop---Bonane-Beara/473/,,-9.536642639,51.81601273,Kerry,Bonane,Republic of Ireland,"Walking,Natural Landscape",Walk/Nature,4.820133888895717
Piltown - Mountain Grove Loop,http://www.trailkilkenny.ie,+353(0)567752111,-7.341113595,52.35373178,Kilkenny,,Ireland,"Walking,Natural Landscape",Walk/Nature,4.138556664764403
Tullahought Kilmacoliver Loop Walk,http://www.trailkilkenny.ie,,-7.373104347999999,52.42256284,Kilkenny,,Republic of Ireland,"Walking,Natural Landscape",Walk/Nature,4.524510382831963
Tory Hill - Frochans Loop,http://www.trailkilkenny.ie,,-7.17550686,52.36787812,Kilkenny,Mullinavat,Republic of Ireland,"Walking,Natural Landscape",Walk/Nature,6.353096769063251
Castlemorris - Fern Loop,http://www.irishtrails.ie/Trail/Castlemorris---Fern-loop-/119/,,-7.212819444,52.48398887,Kilkenny,Knocktopher,Ireland,"Walking,Natural Landscape",Walk/Nature,6.302372138016922
Commons Loop,http://www.carlingford.ie,+353(0)429373033,-6.186023506000001,54.03790008,Louth,Carlingford,Republic of Ireland,"Walking,Natural Landscape",Walk/Nature,6.864169959625045
Castlemorris Wood - Holly Loop,http://www.irishtrails.ie/Trail/Castlemorris---Holly-loop/120/,,-7.27840948,52.47060617,Kilkenny,Knocktopher,Ireland,"Walking,Natural Landscape",Walk/Nature,5.251324889864753
Westport Greenway,http://www.mayowalks.ie/WalkingTrails/Greenway/WestportGreenway/,,-9.514346699999999,53.802130700000006,Mayo,Westport,Ireland,"Walking,Natural Landscape",Walk/Nature,5.248876959589426
Ballybunion Lahardane Walk,http://www.irishtrails.ie/Trail/Ballybunion-Loops---Lahardane-Hill-Walk/608/,+353(0)667121288,-9.653116507,52.50812603,Kerry,Ballybunion,Republic of Ireland,"Walking,Natural Landscape",Walk/Nature,4.751496191798083
Ballinastoe and Lower Vartry Reservoir Slí na Sláinte,http://www.irishheart.ie/iopen24/walking-routes-t-8_197_200_208_210.html,,-6.202243035,53.091232999999995,Wicklow,Roundwood,Ireland,"Walking,Natural Landscape",Walk/Nature,5.826407054272596
O'Gorman's Lane Loop Walk,http://www.irishtrails.ie/Trail/O-Gormans-Lane-/583/,,-7.182288408,52.59235277,Kilkenny,Bennettsbridge,Ireland,"Walking,Natural Landscape",Walk/Nature,3.1286525397833236
Newcastle Woods,http://visitlongford.ie/trails/newcastle-woods-walking-trail,3.53433E+11,-7.7261067,53.5621238,Longford,,Ireland,"Walking,Natural Landscape",Walk/Nature,5.323738974733007
Monicknew Trails,http://www.irishtrails.ie/Trail/Monicknew---Valley-Walk/256/,,-7.546328954,53.07598412,Laois,Clonaslee,Ireland,"Walking,Natural Landscape",Walk/Nature,3.557438522580897
Annaloughan Loop,http://www.irishtrails.ie/Trail/Annaloughan-loop/488/,+353(0)429352111,-6.186023506000001,54.03790008,Louth,Jenkinstown,Republic of Ireland,"Walking,Natural Landscape",Walk/Nature,4.940955200215119
Keel Uphill Downhill Loop,http://irishtrails.ie/Trail/Keel-Uphill-Downhill-Loop-Walk/666/,,-9.756397046,52.17636808,Kerry,Castlemaine,Ireland,"Walking,Natural Landscape",Walk/Nature,4.778843427827826
Grange Loops - Rooskey Loop,http://www.irishtrails.ie/trails.aspx?c=Louth,,-6.188670913999999,54.04287039,Louth,Grange,Ireland,"Walking,Natural Landscape",Walk/Nature,6.293695654918435
Ballinamuck Bog Loop,http://www.irishtrails.ie/Trail/Ballinamuck---Bog-Walk/139/,,-7.717482949,53.86680946,Longford,Ballinamuck,Ireland,"Walking,Natural Landscape",Walk/Nature,3.1917946029764437
Windgap Village Loop,http://facebook.com/windgap.tidytowns,+353(0)874186077,-7.398741817,52.46414155,Kilkenny,Windgap,Ireland,"Walking,Natural Landscape",Walk/Nature,4.390292167789024
Carlingford Lough Greenway,https://www.visitlouth.ie/explore-and-do/do/tours-and-trails-louth/carlingford-lough-greenway.html,3.53429E+11,-6.257084506,54.09031345,Louth,Carlingford,Ireland,"Walking,Natural Landscape",Walk/Nature,3.527014332338833
Molly Loop,http://www.irishtrails.ie/trails.aspx?c=Louth,,-6.187984267999999,54.04327358,Louth,Grange,Ireland,"Walking,Natural Landscape",Walk/Nature,8.845765294026789
Bearna Breac Loop,http://facebook.com/windgap.tidytowns,+353(0)874186077,-7.398690855,52.46418975,Kilkenny,Windgap,Ireland,"Walking,Natural Landscape",Walk/Nature,4.2127751737837915
Kerry Geopark,https://www.facebook.com/kerrygeopark,+353(0)877934663,-9.897747,51.837759000000005,Kerry,Sneem,Republic of Ireland,"Walking,Natural Landscape,Activity Operator",Walk/Nature,3.3250798248171733
Ballinastoe Slí,http://trails.ie/map.php?keyword=ballinastoe,,-6.226408999999999,53.109277600000006,Wicklow,Roundwood,Ireland,"Walking,Natural Landscape,Public Park,Nature and Wildlife",Walk/Nature,2.6933719538707477
Tramline Loop,https://visithowth.ie/the-tramline-loop/,35318323347,-6.066380923,53.38800343,Dublin,Howth,Republic of Ireland,"Walking,Natural Landscape,Public Park,Nature and Wildlife",Walk/Nature,2.536211753734117
Rosses Point Coastal Walk,https://www.discoverireland.ie/sligo,,-8.557107709,54.30834572,Sligo,Rosses Point,Republic of Ireland,"Walking,Natural Landscape,Public Sculpture",Walk/Nature,5.917334161193513
Carrowteige - Children of Lir Loop,http://www.irishtrails.ie/Trail/Carrowteige--Children-of-Lir--Loop/141/,,-9.813638062999999,54.31261173,Mayo,,Republic of Ireland,"Walking,Public Park,Nature and Wildlife,Public Sculpture",Walk/Nature,1.3067579018545694
Carrowteige - Black Ditch Loop,https://www.irishtrails.ie/Trail/Carrowteige---Black-Ditch-loop/140/ ,,-9.987016054,54.22138267,Mayo,,Republic of Ireland,"Walking,Public Park,Nature and Wildlife,Public Sculpture",Walk/Nature,6.233272813036652
Broadford Ashford Walking Trails - Killagholehane Way,http://walkbroadfordashford.com/trail/killagholehane-way/,,-8.972707000000002,52.346003,Limerick,Broadford,Ireland,"Walking,Ruins,Historic Houses and Castle",Walk/Nature,4.825481663743618
Glasnevin Cemetery Museum,http://www.glasnevinmuseum.ie,35318826550,-6.2770874,53.37003000000001,Dublin,Glasnevin,Ireland,"Walking,Tracing Your Ancestors,Gardens,Garden,Museums and Attraction,Public Sculpture,Cafe,Food and Drink,Food Shops,Shopping,Tour",Museum,5.803781561916917
Rumley's Open Farm,https://rumleysfarm.ie/,3.53215E+11,-8.5365005,51.83483762,Cork,,Ireland,"Walking,Zip Lining,Activity Operator,Visitor Farm,Cafe,Food and Drink,Food Shops,Shopping",Shopping,4.857082360054122
